{"version": 0.6, "generator": "Overpass API 0.7.62.8 e802775f", "osm3s": {"timestamp_osm_base": "2025-11-21T22:43:46Z", "copyright": "The data included in this document is from www.openstreetmap.org. The data is made available under ODbL."}, "elements": [{"type": "node", "id": 354731077, "lat": -33.4764512, "lon": -70.6416871, "tags": {"amenity": "parking"}}, {"type": "node", "id": 433953219, "lat": -33.4737134, "lon": -70.6258683, "tags": {"addr:city": "San Joaqu\u00edn", "addr:housenumber": "2380", "addr:street": "Santa Elena", "amenity": "bank", "brand": "Banco Internacional", "brand:wikidata": "Q56605586", "name": "Banco Internacional"}}, {"type": "node", "id": 610181729, "lat": -33.4736682, "lon": -70.6322168, "tags": {"amenity": "parking"}}, {"type": "node", "id": 685958679, "lat": -33.4921863, "lon": -70.6178069, "tags": {"amenity": "pharmacy", "healthcare": "pharmacy", "name": "Damyfar", "source": "Reconocimiento cortogr\u00e1fico de campo 2016 por KG"}}, {"type": "node", "id": 685958686, "lat": -33.4913209, "lon": -70.6181269, "tags": {"amenity": "atm", "check_date": "2025-08-04"}}, {"type": "node", "id": 906421415, "lat": -33.5170635, "lon": -70.6348025, "tags": {"addr:city": "San Joaqu\u00edn", "addr:housenumber": "448", "addr:street": "Sebastopol", "amenity": "school", "contact:email": "escuelajavieracarrera@gmail.co", "name": "Escuela Particular Javiera Carrera", "operator": "3", "school:type": "110", "source": "Gobierno Regional Metropolitano de Santiago (http://www.gobiernosantiago.cl/)"}}, {"type": "node", "id": 906421425, "lat": -33.516388, "lon": -70.6331566, "tags": {"addr:housenumber": "6280", "addr:street": "Metal Rojo", "amenity": "school", "contact:email": "gcasanueva@hotmail.com", "name": "Col De Adul Cent De Educ Int De Adul La", "operator": "3", "school:type": "160;361", "source": "Gobierno Regional Metropolitano de Santiago (http://www.gobiernosantiago.cl/)"}}, {"type": "node", "id": 906421487, "lat": -33.5164518, "lon": -70.6331429, "tags": {"addr:city": "San Joaqu\u00edn", "addr:country": "CL", "addr:housenumber": "6280", "addr:street": "Metal Rojo", "amenity": "school", "contact:email": "gcasanueva@hotmail.com", "name": "Escuela B\u00e1sica la Castrina", "note": "Correcciones masivas a ortograf\u00eda en nombres de importaciones hechas por equipo de gendarmer\u00eda", "operator": "3", "school:type": "10;110", "source": "Gobierno Regional Metropolitano de Santiago (http://www.gobiernosantiago.cl/)"}}, {"type": "node", "id": 906421535, "lat": -33.5156962, "lon": -70.6259689, "tags": {"addr:housenumber": "300", "addr:street": "Sebastopol", "amenity": "school", "contact:email": "escuelacantares@terra.cl", "name": "Escuela Especial Cantares", "operator": "3", "school:type": "212;214", "source": "Gobierno Regional Metropolitano de Santiago (http://www.gobiernosantiago.cl/)"}}, {"type": "node", "id": 906421544, "lat": -33.5176655, "lon": -70.6296392, "tags": {"addr:city": "San Joaqu\u00edn", "addr:country": "CL", "addr:housenumber": "441", "addr:street": "Avenida Lo Ovalle", "amenity": "kindergarten", "contact:email": "Escuelaheidi@gmail.com", "name": "Escuela de P\u00e1rvulos Heidi Garden School", "note": "Correcciones masivas a ortograf\u00eda en nombres de importaciones hechas por equipo de gendarmer\u00eda", "operator": "3", "school:type": "10", "source": "Gobierno Regional Metropolitano de Santiago (http://www.gobiernosantiago.cl/)"}}, {"type": "node", "id": 906421560, "lat": -33.516398, "lon": -70.6279657, "tags": {"addr:housenumber": "6309", "addr:street": "Latinoam\u00e9rica", "amenity": "school", "contact:email": "selva_v6@yahoo.es", "name": "Escuela Especial Francisca Mackarena", "operator": "3", "school:type": "214", "source": "Gobierno Regional Metropolitano de Santiago (http://www.gobiernosantiago.cl/)"}}, {"type": "node", "id": 906421697, "lat": -33.5007618, "lon": -70.6313357, "tags": {"addr:city": "San Joaqu\u00edn", "addr:housenumber": "312", "addr:street": "Ureta Cox", "amenity": "school", "contact:email": "c_rainbows@hotmail.com", "name": "Escuela B\u00e1sica Particular Rainbow School", "operator": "3", "school:type": "10;110", "source": "Gobierno Regional Metropolitano de Santiago (http://www.gobiernosantiago.cl/)"}}, {"type": "node", "id": 906421711, "lat": -33.5036508, "lon": -70.6362362, "tags": {"addr:city": "San Joaqu\u00edn", "addr:country": "CL", "addr:housenumber": "433", "addr:street": "Pir\u00e1mide", "amenity": "school", "contact:email": "daniella_parra30@hotmail.com", "contact:phone": "+56 2 5539746", "name": "Escuela Especial Pir\u00e1mide", "note": "Correcciones masivas a ortograf\u00eda en nombres de importaciones hechas por equipo de gendarmer\u00eda", "operator": "3", "school:type": "214", "source": "Gobierno Regional Metropolitano de Santiago (http://www.gobiernosantiago.cl/)"}}, {"type": "node", "id": 906421712, "lat": -33.5041038, "lon": -70.6374128, "tags": {"addr:city": "San Joaqu\u00edn", "addr:country": "CL", "addr:housenumber": "452", "addr:street": "Pir\u00e1mide", "amenity": "school", "contact:email": "esc_Jes\u00fas bosque@yahoo.es", "contact:phone": "+56 2 4593531", "name": "Escuela Especial Jes\u00fas del Bosque", "note": "Correcciones masivas a ortograf\u00eda en nombres de importaciones hechas por equipo de gendarmer\u00eda", "operator": "3", "school:type": "214", "source": "Gobierno Regional Metropolitano de Santiago (http://www.gobiernosantiago.cl/)"}}, {"type": "node", "id": 906421714, "lat": -33.5049682, "lon": -70.6346301, "tags": {"addr:housenumber": "5288", "addr:street": "Gaspar de Espinoza", "amenity": "kindergarten", "contact:email": "edpmiprincesita@hotmail.com", "name": "Escuela de P\u00e1rvulos Mi Princesita", "operator": "3", "school:type": "10", "source": "Gobierno Regional Metropolitano de Santiago (http://www.gobiernosantiago.cl/)"}}, {"type": "node", "id": 906421715, "lat": -33.4989412, "lon": -70.6250607, "tags": {"addr:city": "San Joaqu\u00edn", "addr:country": "CL", "addr:housenumber": "4535", "addr:street": "Vecinal", "amenity": "school", "contact:email": "Escuela_vocare@chile.com", "name": "Escuela Especial Vocare", "note": "Correcciones masivas a ortograf\u00eda en nombres de importaciones hechas por equipo de gendarmer\u00eda", "operator": "3", "school:type": "212;214", "source": "Gobierno Regional Metropolitano de Santiago (http://www.gobiernosantiago.cl/)"}}, {"type": "node", "id": 906421716, "lat": -33.5013109, "lon": -70.6276977, "tags": {"addr:city": "San Joaqu\u00edn", "addr:country": "CL", "addr:housenumber": "4825", "addr:street": "Avenida Las Industrias", "amenity": "school", "contact:email": "EscuelaEspecialchilecuba@latin", "contact:phone": "+56 2 3591073", "name": "Escuela Especial de Lenguaje Chile Cuba", "note": "Correcciones masivas a ortograf\u00eda en nombres de importaciones hechas por equipo de gendarmer\u00eda", "operator": "3", "school:type": "214", "source": "Gobierno Regional Metropolitano de Santiago (http://www.gobiernosantiago.cl/)"}}, {"type": "node", "id": 906421717, "lat": -33.498196, "lon": -70.6326391, "tags": {"addr:housenumber": "4517", "addr:street": "Martin Henriquez", "amenity": "school", "contact:email": "escuelacarrusel@hotmail.com", "contact:phone": "+56 2 5539699", "name": "Escuela Especial Carrusel", "operator": "3", "school:type": "214", "source": "Gobierno Regional Metropolitano de Santiago (http://www.gobiernosantiago.cl/)"}}, {"type": "node", "id": 906421722, "lat": -33.4961344, "lon": -70.6309301, "tags": {"addr:city": "San Joaqu\u00edn", "addr:housenumber": "298", "addr:street": "Avenida Presidente Salvador Allende Gossens", "amenity": "school", "contact:email": "germanromero_76@hotmail.com", "contact:phone": "+56 2 5532640", "name": "Escuela B\u00e1sica Particular Queen & Flowers College", "operator": "3", "school:type": "10;110", "source": "Gobierno Regional Metropolitano de Santiago (http://www.gobiernosantiago.cl/)"}}, {"type": "node", "id": 906421723, "lat": -33.489965, "lon": -70.6298852, "tags": {"addr:city": "San Joaqu\u00edn", "addr:country": "CL", "addr:housenumber": "308", "addr:street": "Artes Y Oficios", "amenity": "school", "contact:email": "arboliris@gmail.com", "name": "Escuela Especial Arboliris", "note": "Correcciones masivas a ortograf\u00eda en nombres de importaciones hechas por equipo de gendarmer\u00eda", "operator": "3", "school:type": "214", "source": "Gobierno Regional Metropolitano de Santiago (http://www.gobiernosantiago.cl/)"}}, {"type": "node", "id": 906421724, "lat": -33.4880662, "lon": -70.6385588, "tags": {"addr:city": "San Joaqu\u00edn", "addr:housenumber": "607", "addr:street": "Alcalde Pedro Alarc\u00f3n", "amenity": "school", "contact:email": "ueloscopihues@coanil.cl", "name": "Escuela Especial Los Copihues N\u00b04", "operator": "3", "school:type": "212", "source": "Gobierno Regional Metropolitano de Santiago (http://www.gobiernosantiago.cl/)"}}, {"type": "node", "id": 906421725, "lat": -33.4959052, "lon": -70.6278928, "tags": {"addr:housenumber": "4349", "addr:street": "Las Industrias", "amenity": "school", "contact:email": "robantc@yahoo.es", "name": "Liceo Polivalente Adventista Stgo. Sur", "operator": "3", "school:type": "10;110;310;410", "source": "Reconocimiento cortogr\u00e1fico de campo 2016 por KG"}}, {"type": "node", "id": 906421728, "lat": -33.4938089, "lon": -70.6263681}, {"type": "node", "id": 906421729, "lat": -33.4886014, "lon": -70.6230353}, {"type": "node", "id": 906421749, "lat": -33.511642, "lon": -70.614564, "tags": {"addr:street": "Pasaje Hammerskjold", "amenity": "school", "contact:email": "brenda_risso@hotmail.com", "contact:phone": "+56 2 2218579", "name": "Escuela Especial Abra Palabra", "operator": "3", "school:type": "214", "source": "Gobierno Regional Metropolitano de Santiago (http://www.gobiernosantiago.cl/)"}}, {"type": "node", "id": 906421812, "lat": -33.498964, "lon": -70.6181189, "tags": {"addr:city": "San Joaqu\u00edn", "addr:housenumber": "18", "addr:street": "Raquel", "amenity": "school", "contact:email": "cstmonica@hotmail.com", "name": "Escuela Particular Centro Educacional Santa M\u00f3nica", "operator": "3", "school:type": "10;110", "source": "Gobierno Regional Metropolitano de Santiago (http://www.gobiernosantiago.cl/)"}}, {"type": "node", "id": 906422118, "lat": -33.4923484, "lon": -70.618249, "tags": {"addr:city": "San Joaqu\u00edn", "addr:housenumber": "3675", "addr:street": "San Juan", "amenity": "school", "contact:email": "liceoespiritusanto@terra.cl", "name": "Colegio Esp\u00edritu Santo Del Verbo Divino", "operator": "3", "school:type": "110;310", "source": "Gobierno Regional Metropolitano de Santiago (http://www.gobiernosantiago.cl/)"}}, {"type": "node", "id": 906422130, "lat": -33.4927461, "lon": -70.6194997, "tags": {"addr:housenumber": "125", "addr:street": "Castelar Sur", "amenity": "school", "contact:email": "yuvenkota@yahoo.es", "name": "Escuela Industrial El Pinar", "operator": "3", "school:type": "510", "source": "Gobierno Regional Metropolitano de Santiago (http://www.gobiernosantiago.cl/)"}}, {"type": "node", "id": 906425426, "lat": -33.4814308, "lon": -70.6240087, "tags": {"addr:city": "San Joaqu\u00edn", "addr:country": "CL", "addr:housenumber": "3185", "addr:street": "Calle Liszt", "amenity": "school", "contact:email": "alduscercom@yahoo.com", "contact:phone": "+56 2 5539028", "name": "Colegio We Tripantu", "note": "Correcciones masivas a ortograf\u00eda en nombres de importaciones hechas por equipo de gendarmer\u00eda", "operator": "3", "school:type": "10;110", "source": "Gobierno Regional Metropolitano de Santiago (http://www.gobiernosantiago.cl/)"}}, {"type": "node", "id": 906425427, "lat": -33.4796319, "lon": -70.6241653, "tags": {"addr:city": "San Joaqu\u00edn", "addr:housenumber": "190", "addr:street": "Juan Sebasti\u00e1n Bach", "amenity": "school", "contact:email": "robertbadenpowell@latinmail.co", "name": "Escuela Robert Baden Powell School", "operator": "3", "school:type": "10;110", "source": "Gobierno Regional Metropolitano de Santiago (http://www.gobiernosantiago.cl/)"}}, {"type": "node", "id": 906425428, "lat": -33.4859385, "lon": -70.64069, "tags": {"addr:city": "San Joaqu\u00edn", "addr:country": "CL", "addr:housenumber": "660", "addr:street": "Jorge Canning", "amenity": "school", "contact:email": "Colegiomanuelvicuna@yahoo.es", "name": "Colegio Arzobispo Manuel Vicu\u00f1a", "note": "Correcciones masivas a ortograf\u00eda en nombres de importaciones hechas por equipo de gendarmer\u00eda", "operator": "3", "school:type": "10;110;310;410", "source": "Gobierno Regional Metropolitano de Santiago (http://www.gobiernosantiago.cl/)"}}, {"type": "node", "id": 906425429, "lat": -33.4786972, "lon": -70.6358048}, {"type": "node", "id": 906425828, "lat": -33.4797803, "lon": -70.6415279, "tags": {"addr:city": "San Joaqu\u00edn", "addr:housenumber": "2648", "addr:street": "Avenida Santa Rosa", "amenity": "school", "contact:email": "sanantoniodepadua@123mail.cl", "name": "Centro Educacional San Antonio de Padua", "operator": "3", "school:type": "310;410;510;610", "source": "Gobierno Regional Metropolitano de Santiago (http://www.gobiernosantiago.cl/)"}}, {"type": "node", "id": 906426901, "lat": -33.4757143, "lon": -70.6335421, "tags": {"addr:city": "San Joaqu\u00edn", "addr:country": "CL", "addr:housenumber": "2283", "addr:street": "ManuEl Antonio Tocornal", "amenity": "school", "contact:email": "Escuelacastorcito@hotmail.com", "contact:phone": "+56 2 5556772", "name": "Escuela Especial Castorcito", "note": "Correcciones masivas a ortograf\u00eda en nombres de importaciones hechas por equipo de gendarmer\u00eda", "operator": "3", "school:type": "214", "source": "Gobierno Regional Metropolitano de Santiago (http://www.gobiernosantiago.cl/)"}}, {"type": "node", "id": 1381112778, "lat": -33.4812654, "lon": -70.641243, "tags": {"amenity": "fuel", "brand": "Terpel", "brand:wikidata": "Q7703003", "name": "Terpel"}}, {"type": "node", "id": 1406055989, "lat": -33.472416, "lon": -70.6262217, "tags": {"amenity": "fuel", "brand": "Copec", "brand:wikidata": "Q1130956", "name": "Copec"}}, {"type": "node", "id": 1476615454, "lat": -33.508481, "lon": -70.6137483, "tags": {"amenity": "pharmacy", "brand": "Cruz Verde", "brand:wikidata": "Q5856071", "dispensing": "yes", "healthcare": "pharmacy", "name": "Cruz Verde"}}, {"type": "node", "id": 1516087260, "lat": -33.5082807, "lon": -70.6327395}, {"type": "node", "id": 1516087286, "lat": -33.5072128, "lon": -70.6320841}, {"type": "node", "id": 1516092412, "lat": -33.510651, "lon": -70.6276607}, {"type": "node", "id": 1516092416, "lat": -33.5105934, "lon": -70.6246197}, {"type": "node", "id": 1516092419, "lat": -33.5097115, "lon": -70.625248, "tags": {"source": "Reconocimiento cortogr\u00e1fico de campo 2016 por KG"}}, {"type": "node", "id": 1516092421, "lat": -33.5060819, "lon": -70.6242307}, {"type": "node", "id": 1516092422, "lat": -33.506514, "lon": -70.6241379}, {"type": "node", "id": 1516092423, "lat": -33.5096648, "lon": -70.6137389}, {"type": "node", "id": 1516092431, "lat": -33.5110119, "lon": -70.6243116}, {"type": "node", "id": 1516092433, "lat": -33.5097171, "lon": -70.6251025, "tags": {"source": "Reconocimiento cortogr\u00e1fico de campo 2016 por KG"}}, {"type": "node", "id": 1516092436, "lat": -33.5062054, "lon": -70.624889}, {"type": "node", "id": 1516092437, "lat": -33.5066191, "lon": -70.6248032}, {"type": "node", "id": 1516092438, "lat": -33.5064863, "lon": -70.6234566}, {"type": "node", "id": 1516092440, "lat": -33.5104779, "lon": -70.6269848}, {"type": "node", "id": 1516092442, "lat": -33.5065208, "lon": -70.623685}, {"type": "node", "id": 1516092443, "lat": -33.5100489, "lon": -70.6179916, "tags": {"amenity": "bicycle_parking", "name": "Estacionamientos Persa Departamental"}}, {"type": "node", "id": 1516092444, "lat": -33.5114136, "lon": -70.6273797}, {"type": "node", "id": 1516092445, "lat": -33.5053264, "lon": -70.6250874}, {"type": "node", "id": 1516092451, "lat": -33.5068555, "lon": -70.6233765}, {"type": "node", "id": 1516092453, "lat": -33.5096659, "lon": -70.6140135}, {"type": "node", "id": 1516092454, "lat": -33.50689, "lon": -70.6236048}, {"type": "node", "id": 1516092455, "lat": -33.5093938, "lon": -70.6249849, "tags": {"source": "Reconocimiento cortogr\u00e1fico de campo 2016 por KG"}}, {"type": "node", "id": 1516092458, "lat": -33.5052078, "lon": -70.6244303}, {"type": "node", "id": 1516092462, "lat": -33.5093832, "lon": -70.6252611, "tags": {"source": "Reconocimiento cortogr\u00e1fico de campo 2016 por KG"}}, {"type": "node", "id": 1516092464, "lat": -33.5107733, "lon": -70.6235217}, {"type": "node", "id": 1516092465, "lat": -33.5103454, "lon": -70.6236849}, {"type": "node", "id": 1516095732, "lat": -33.500763, "lon": -70.6347123}, {"type": "node", "id": 1516095735, "lat": -33.5006935, "lon": -70.63368}, {"type": "node", "id": 1516095759, "lat": -33.4993451, "lon": -70.634402}, {"type": "node", "id": 1516095773, "lat": -33.4993689, "lon": -70.6348252}, {"type": "node", "id": 1516095781, "lat": -33.5000115, "lon": -70.6337489}, {"type": "node", "id": 1516095786, "lat": -33.5007303, "lon": -70.6342999}, {"type": "node", "id": 1516103156, "lat": -33.4948048, "lon": -70.6396756, "tags": {"source": "Reconocimiento cartogr\u00e1fico 2016 por KG."}}, {"type": "node", "id": 1516121128, "lat": -33.499354, "lon": -70.6161221}, {"type": "node", "id": 1516121130, "lat": -33.5005856, "lon": -70.6171319}, {"type": "node", "id": 1516121147, "lat": -33.5012498, "lon": -70.6178216, "tags": {"source": "Reconocimiento cortogr\u00e1fico de campo 2016 por KG"}}, {"type": "node", "id": 1516121158, "lat": -33.503193, "lon": -70.6179287, "tags": {"source": "Reconocimiento cortogr\u00e1fico de campo 2016 por KG"}}, {"type": "node", "id": 1516121166, "lat": -33.5003932, "lon": -70.6159075}, {"type": "node", "id": 1516135398, "lat": -33.4895389, "lon": -70.6318846}, {"type": "node", "id": 1516135400, "lat": -33.4870892, "lon": -70.6326036}, {"type": "node", "id": 1516135401, "lat": -33.4872942, "lon": -70.6326876}, {"type": "node", "id": 1516135402, "lat": -33.4864064, "lon": -70.6335397}, {"type": "node", "id": 1516135407, "lat": -33.4843424, "lon": -70.6302732}, {"type": "node", "id": 1516135414, "lat": -33.4845392, "lon": -70.6295336}, {"type": "node", "id": 1516135418, "lat": -33.4901965, "lon": -70.6319154}, {"type": "node", "id": 1516135422, "lat": -33.4865527, "lon": -70.6326917}, {"type": "node", "id": 1516135424, "lat": -33.4867933, "lon": -70.6336645}, {"type": "node", "id": 1516135425, "lat": -33.4901563, "lon": -70.6326743}, {"type": "node", "id": 1516135431, "lat": -33.4893359, "lon": -70.6323543}, {"type": "node", "id": 1516135433, "lat": -33.4851155, "lon": -70.6306138}, {"type": "node", "id": 1516570101, "lat": -33.5086861, "lon": -70.6178964}, {"type": "node", "id": 1516570106, "lat": -33.508713, "lon": -70.6175423}, {"type": "node", "id": 1516570107, "lat": -33.5080923, "lon": -70.6175155}, {"type": "node", "id": 1516570124, "lat": -33.5080633, "lon": -70.6181485}, {"type": "node", "id": 1516592877, "lat": -33.5078083, "lon": -70.6142719, "tags": {"amenity": "fast_food", "name": "Comida Rapida"}}, {"type": "node", "id": 1516592881, "lat": -33.5078665, "lon": -70.6172948, "tags": {"amenity": "fast_food", "name": "Comida Rapida"}}, {"type": "node", "id": 1516592904, "lat": -33.5061583, "lon": -70.6235867}, {"type": "node", "id": 1516592906, "lat": -33.5075978, "lon": -70.6142232, "tags": {"amenity": "fast_food", "name": "Comida Rapida"}}, {"type": "node", "id": 1516592908, "lat": -33.508354, "lon": -70.6139822, "tags": {"amenity": "restaurant", "name": "Restoran"}}, {"type": "node", "id": 1516592911, "lat": -33.5077502, "lon": -70.6142022, "tags": {"amenity": "restaurant", "name": "Restoran"}}, {"type": "node", "id": 1516592942, "lat": -33.5083719, "lon": -70.6138696, "tags": {"amenity": "bar", "name": "Bar"}}, {"type": "node", "id": 1516592944, "lat": -33.5057508, "lon": -70.6236114, "tags": {"amenity": "pharmacy"}}, {"type": "node", "id": 1516592946, "lat": -33.5077923, "lon": -70.6175126, "tags": {"addr:street": "Avenida Departamental", "amenity": "restaurant", "name": "Restaurant Hong Ta", "source": "Reconocimiento cortogr\u00e1fico de campo 2016 por KG"}}, {"type": "node", "id": 1516592953, "lat": -33.5062327, "lon": -70.6240426}, {"type": "node", "id": 1516592970, "lat": -33.5064647, "lon": -70.623989}, {"type": "node", "id": 1516592979, "lat": -33.5064044, "lon": -70.6235357}, {"type": "node", "id": 1516609965, "lat": -33.5051596, "lon": -70.6320426}, {"type": "node", "id": 1516609967, "lat": -33.507229, "lon": -70.6361883}, {"type": "node", "id": 1516609971, "lat": -33.5066992, "lon": -70.6319112}, {"type": "node", "id": 1516610004, "lat": -33.5052528, "lon": -70.6330863}, {"type": "node", "id": 1516610010, "lat": -33.5080208, "lon": -70.6347238}, {"type": "node", "id": 1516610013, "lat": -33.5081952, "lon": -70.635802}, {"type": "node", "id": 1516610015, "lat": -33.5072068, "lon": -70.6350134}, {"type": "node", "id": 1516610017, "lat": -33.5068754, "lon": -70.6329301}, {"type": "node", "id": 1516713657, "lat": -33.4851919, "lon": -70.6305666}, {"type": "node", "id": 1516713669, "lat": -33.4852364, "lon": -70.6302503}, {"type": "node", "id": 1516713672, "lat": -33.4852834, "lon": -70.6298392}, {"type": "node", "id": 1648002616, "lat": -33.4865617, "lon": -70.6328204}, {"type": "node", "id": 1648066530, "lat": -33.5085458, "lon": -70.6254266, "tags": {"amenity": "parking"}}, {"type": "node", "id": 1648066532, "lat": -33.5075166, "lon": -70.6226069}, {"type": "node", "id": 1648066533, "lat": -33.5062412, "lon": -70.624203}, {"type": "node", "id": 1648066534, "lat": -33.5060442, "lon": -70.6242394}, {"type": "node", "id": 1648066542, "lat": -33.5074361, "lon": -70.6221047}, {"type": "node", "id": 1648066543, "lat": -33.5085991, "lon": -70.6233842}, {"type": "node", "id": 1648066550, "lat": -33.5082458, "lon": -70.623521}, {"type": "node", "id": 1648066551, "lat": -33.5062091, "lon": -70.6240149}, {"type": "node", "id": 1648066553, "lat": -33.5083075, "lon": -70.6237557}, {"type": "node", "id": 1648066554, "lat": -33.5086595, "lon": -70.6236125}, {"type": "node", "id": 1648066558, "lat": -33.5060328, "lon": -70.6241771}, {"type": "node", "id": 1648066559, "lat": -33.505676, "lon": -70.6242504}, {"type": "node", "id": 1648066561, "lat": -33.5056555, "lon": -70.6241197}, {"type": "node", "id": 1648066571, "lat": -33.507545, "lon": -70.6221194}, {"type": "node", "id": 1648066574, "lat": -33.5074068, "lon": -70.6225986}, {"type": "node", "id": 1648072130, "lat": -33.4919401, "lon": -70.6178121, "tags": {"amenity": "fountain"}}, {"type": "node", "id": 1648072137, "lat": -33.4937457, "lon": -70.6271955}, {"type": "node", "id": 1649806167, "lat": -33.5090145, "lon": -70.6138348}, {"type": "node", "id": 1649806170, "lat": -33.5089906, "lon": -70.6132383}, {"type": "node", "id": 1649806179, "lat": -33.509634, "lon": -70.6125581}, {"type": "node", "id": 1686116662, "lat": -33.4915335, "lon": -70.6179171, "tags": {"amenity": "bicycle_parking", "capacity": "30", "covered": "yes", "name": "Estacionamiento Bicicletas"}}, {"type": "node", "id": 1686120811, "lat": -33.4909294, "lon": -70.6198521}, {"type": "node", "id": 1686120812, "lat": -33.4913915, "lon": -70.6197483}, {"type": "node", "id": 1686120814, "lat": -33.4897329, "lon": -70.6191193, "tags": {"amenity": "toilets"}}, {"type": "node", "id": 1696660367, "lat": -33.4915911, "lon": -70.6179077}, {"type": "node", "id": 1696660372, "lat": -33.4905671, "lon": -70.6201173}, {"type": "node", "id": 1696660373, "lat": -33.4905269, "lon": -70.620494}, {"type": "node", "id": 1696660374, "lat": -33.4917415, "lon": -70.6198651}, {"type": "node", "id": 1696660377, "lat": -33.4899363, "lon": -70.6202862}, {"type": "node", "id": 1696660379, "lat": -33.48999, "lon": -70.6205564}, {"type": "node", "id": 1696660381, "lat": -33.4917169, "lon": -70.6183798}, {"type": "node", "id": 1700234445, "lat": -33.4917723, "lon": -70.6188565}, {"type": "node", "id": 1701959921, "lat": -33.4912552, "lon": -70.6191484}, {"type": "node", "id": 1701959939, "lat": -33.4906767, "lon": -70.6190621}, {"type": "node", "id": 1790733408, "lat": -33.4909765, "lon": -70.6183898, "tags": {"amenity": "toilets", "fee": "no", "unisex": "yes"}}, {"type": "node", "id": 1795198634, "lat": -33.4886485, "lon": -70.6293053}, {"type": "node", "id": 1795198670, "lat": -33.4888118, "lon": -70.6292946}, {"type": "node", "id": 1795198675, "lat": -33.4888095, "lon": -70.6291739}, {"type": "node", "id": 1795198676, "lat": -33.4886429, "lon": -70.6291836}, {"type": "node", "id": 1795199957, "lat": -33.5031414, "lon": -70.6174768, "tags": {"source": "Reconocimiento cortogr\u00e1fico de campo 2016 por KG"}}, {"type": "node", "id": 1982401123, "lat": -33.4906005, "lon": -70.6185288, "tags": {"amenity": "toilets"}}, {"type": "node", "id": 1982401126, "lat": -33.4899521, "lon": -70.619594, "tags": {"amenity": "toilets"}}, {"type": "node", "id": 2274706451, "lat": -33.4907077, "lon": -70.6192621}, {"type": "node", "id": 2397447363, "lat": -33.4733099, "lon": -70.6259855, "tags": {"addr:country": "CL", "amenity": "bank", "brand": "BCI", "brand:wikidata": "Q2882083", "fixme": "Correcciones masivas de nombres con may\u00fasculas", "name": "BCI", "official_name": "Banco de Cr\u00e9dito e Inversiones"}}, {"type": "node", "id": 2397453810, "lat": -33.4960925, "lon": -70.6238516, "tags": {"amenity": "fuel", "name": "Shell"}}, {"type": "node", "id": 2437239572, "lat": -33.4994699, "lon": -70.6173498}, {"type": "node", "id": 2437239577, "lat": -33.4986379, "lon": -70.6162918}, {"type": "node", "id": 2437239579, "lat": -33.498818, "lon": -70.6175038}, {"type": "node", "id": 2448321209, "lat": -33.4994662, "lon": -70.6167121}, {"type": "node", "id": 2451927354, "lat": -33.4954236, "lon": -70.6246287, "tags": {"addr:housenumber": "143", "addr:street": "Avenida Presidente Salvador Allende Gossens", "amenity": "Planta Revisi\u00f3n T\u00e9cnica", "name": "T\u00fcv Rheinland", "phone": "+56225529036", "website": "http://www.tuv.cl"}}, {"type": "node", "id": 2473039538, "lat": -33.4925642, "lon": -70.6191577, "tags": {"amenity": "fast_food"}}, {"type": "node", "id": 3015643013, "lat": -33.4905794, "lon": -70.6200994}, {"type": "node", "id": 3015643014, "lat": -33.4916892, "lon": -70.6198609}, {"type": "node", "id": 3015643020, "lat": -33.490572, "lon": -70.6200201}, {"type": "node", "id": 3323737246, "lat": -33.5112405, "lon": -70.6267038}, {"type": "node", "id": 3374930395, "lat": -33.5044192, "lon": -70.6164666, "tags": {"source": "Reconocimiento cortogr\u00e1fico de campo 2016 por KG"}}, {"type": "node", "id": 3374930396, "lat": -33.5042958, "lon": -70.6155767, "tags": {"source": "Reconocimiento cortogr\u00e1fico de campo 2016 por KG"}}, {"type": "node", "id": 3374930398, "lat": -33.502441, "lon": -70.6154871}, {"type": "node", "id": 3565356094, "lat": -33.4959805, "lon": -70.6278365, "tags": {"addr:city": "San Joaquin", "addr:housenumber": "4239", "addr:street": "Pasaje Concepci\u00f3n", "amenity": "kindergarten", "name": "Rayito Del Sol"}}, {"type": "node", "id": 3565356730, "lat": -33.5052676, "lon": -70.6296712, "tags": {"addr:city": "San Joaquin", "addr:housenumber": "5369", "addr:street": "Pintor Murillo", "amenity": "kindergarten", "name": "Gabriela Mistral"}}, {"type": "node", "id": 3671147099, "lat": -33.4883113, "lon": -70.6359112}, {"type": "node", "id": 3671179909, "lat": -33.4927352, "lon": -70.6316145}, {"type": "node", "id": 3671186102, "lat": -33.4986487, "lon": -70.6251203, "tags": {"addr:city": "San Joaquin", "addr:housenumber": "4551", "addr:street": "Vecinal", "amenity": "kindergarten", "name": "Jard\u00edn Infantil Infanta Leonor de Espa\u00f1a"}}, {"type": "node", "id": 3671186125, "lat": -33.4926121, "lon": -70.6240614, "tags": {"addr:city": "San Joaquin", "addr:housenumber": "213", "addr:street": "Castelar Norte", "amenity": "kindergarten", "name": "Jard\u00edn Infantil El Pinar"}}, {"type": "node", "id": 3682866528, "lat": -33.5016769, "lon": -70.6163085}, {"type": "node", "id": 3682866530, "lat": -33.5015857, "lon": -70.6156604}, {"type": "node", "id": 3855002081, "lat": -33.4905177, "lon": -70.61851, "tags": {"amenity": "toilets"}}, {"type": "node", "id": 3855002084, "lat": -33.4896187, "lon": -70.6188981, "tags": {"amenity": "library", "name": "Libreria don fede"}}, {"type": "node", "id": 3855002091, "lat": -33.4912111, "lon": -70.6189411}, {"type": "node", "id": 3895257041, "lat": -33.5064328, "lon": -70.6381145, "tags": {"addr:city": "San Joaqu\u00edn", "addr:housenumber": "5320", "addr:street": "Avenida Santa Rosa", "amenity": "post_office", "brand": "Chilexpress", "name": "Chilexpress", "operator": "Chilexpress", "operator:wikidata": "Q120969879", "website": "https://www.chilexpress.cl/"}}, {"type": "node", "id": 4081921121, "lat": -33.4753572, "lon": -70.6257751, "tags": {"access": "yes", "amenity": "charging_station", "capacity": "2", "name": "Copec Voltex", "operator": "Copec", "operator:wikidata": "Q1130956"}}, {"type": "node", "id": 4081921124, "lat": -33.475596, "lon": -70.6258239, "tags": {"amenity": "bank", "brand": "Banco de Chile", "brand:wikidata": "Q2882085", "name": "Banco de Chile"}}, {"type": "node", "id": 4126727384, "lat": -33.5012454, "lon": -70.6325681, "tags": {"addr:housenumber": "4763", "addr:street": "Cop\u00e9rnico", "amenity": "childcare", "name": "Casa de Amor"}}, {"type": "node", "id": 4232379758, "lat": -33.4729462, "lon": -70.6253007}, {"type": "node", "id": 4398356366, "lat": -33.4860361, "lon": -70.6276629}, {"type": "node", "id": 4398356414, "lat": -33.4852705, "lon": -70.6271533}, {"type": "node", "id": 4398356415, "lat": -33.4860238, "lon": -70.6271345}, {"type": "node", "id": 4398356416, "lat": -33.4860451, "lon": -70.6279553}, {"type": "node", "id": 4398356417, "lat": -33.4857666, "lon": -70.6280136}, {"type": "node", "id": 4398356418, "lat": -33.4852867, "lon": -70.6280217}, {"type": "node", "id": 4398356419, "lat": -33.4852263, "lon": -70.6279834}, {"type": "node", "id": 4398356543, "lat": -33.4867418, "lon": -70.6254308}, {"type": "node", "id": 4398356544, "lat": -33.486744, "lon": -70.6252041}, {"type": "node", "id": 4398356545, "lat": -33.4859633, "lon": -70.6253704}, {"type": "node", "id": 4398356546, "lat": -33.4859666, "lon": -70.6254535}, {"type": "node", "id": 4398356547, "lat": -33.485791, "lon": -70.6264138}, {"type": "node", "id": 4398356548, "lat": -33.4856188, "lon": -70.6264138}, {"type": "node", "id": 4398356549, "lat": -33.4857978, "lon": -70.6256735}, {"type": "node", "id": 4398356550, "lat": -33.4858984, "lon": -70.6256654}, {"type": "node", "id": 4398356551, "lat": -33.4859118, "lon": -70.6264111}, {"type": "node", "id": 4398356560, "lat": -33.4851559, "lon": -70.6275241}, {"type": "node", "id": 4436139061, "lat": -33.4981824, "lon": -70.6163417, "tags": {"source": "Reconocimiento cortogr\u00e1fico de campo 2016 por KG"}}, {"type": "node", "id": 4436139062, "lat": -33.4982129, "lon": -70.6165604, "tags": {"source": "Reconocimiento cortogr\u00e1fico de campo 2016 por KG"}}, {"type": "node", "id": 4436139063, "lat": -33.4983052, "lon": -70.6165419, "tags": {"source": "Reconocimiento cortogr\u00e1fico de campo 2016 por KG"}}, {"type": "node", "id": 4436139064, "lat": -33.4982747, "lon": -70.6163232, "tags": {"source": "Reconocimiento cortogr\u00e1fico de campo 2016 por KG"}}, {"type": "node", "id": 4436139065, "lat": -33.4981646, "lon": -70.6165708, "tags": {"source": "Reconocimiento cortogr\u00e1fico de campo 2016 por KG"}}, {"type": "node", "id": 4436139066, "lat": -33.4981343, "lon": -70.6163521, "tags": {"source": "Reconocimiento cortogr\u00e1fico de campo 2016 por KG"}}, {"type": "node", "id": 4444388160, "lat": -33.4861613, "lon": -70.6300424, "tags": {"source": "Reconocimiento cortogr\u00e1fico de campo 2016 por KG"}}, {"type": "node", "id": 4444388161, "lat": -33.4861591, "lon": -70.62995, "tags": {"source": "Reconocimiento cortogr\u00e1fico de campo 2016 por KG"}}, {"type": "node", "id": 4444388162, "lat": -33.4862766, "lon": -70.6299461, "tags": {"source": "Reconocimiento cortogr\u00e1fico de campo 2016 por KG"}}, {"type": "node", "id": 4444388163, "lat": -33.4862787, "lon": -70.6300385, "tags": {"source": "Reconocimiento cortogr\u00e1fico de campo 2016 por KG"}}, {"type": "node", "id": 4444404811, "lat": -33.4810828, "lon": -70.6216956, "tags": {"source": "Reconocimiento cortogr\u00e1fico de campo 2016 por KG"}}, {"type": "node", "id": 4444404812, "lat": -33.4812456, "lon": -70.6216495, "tags": {"source": "Reconocimiento cortogr\u00e1fico de campo 2016 por KG"}}, {"type": "node", "id": 4444404813, "lat": -33.4812814, "lon": -70.6218323, "tags": {"source": "Reconocimiento cortogr\u00e1fico de campo 2016 por KG"}}, {"type": "node", "id": 4444404814, "lat": -33.4811192, "lon": -70.6218784, "tags": {"source": "Reconocimiento cortogr\u00e1fico de campo 2016 por KG"}}, {"type": "node", "id": 4444404815, "lat": -33.4808356, "lon": -70.6217242, "tags": {"source": "Reconocimiento cortogr\u00e1fico de campo 2016 por KG"}}, {"type": "node", "id": 4444404816, "lat": -33.4808673, "lon": -70.6218734, "tags": {"source": "Reconocimiento cortogr\u00e1fico de campo 2016 por KG"}}, {"type": "node", "id": 4444404817, "lat": -33.4806208, "lon": -70.6219602, "tags": {"source": "Reconocimiento cortogr\u00e1fico de campo 2016 por KG"}}, {"type": "node", "id": 4444404818, "lat": -33.4805893, "lon": -70.6218003, "tags": {"source": "Reconocimiento cortogr\u00e1fico de campo 2016 por KG"}}, {"type": "node", "id": 4444406108, "lat": -33.5014523, "lon": -70.6277338, "tags": {"source": "Reconocimiento cortogr\u00e1fico de campo 2016 por KG"}}, {"type": "node", "id": 4444406109, "lat": -33.5015272, "lon": -70.6277154, "tags": {"source": "Reconocimiento cortogr\u00e1fico de campo 2016 por KG"}}, {"type": "node", "id": 4444406110, "lat": -33.5015043, "lon": -70.6275817, "tags": {"source": "Reconocimiento cortogr\u00e1fico de campo 2016 por KG"}}, {"type": "node", "id": 4444406111, "lat": -33.5014295, "lon": -70.6276, "tags": {"source": "Reconocimiento cortogr\u00e1fico de campo 2016 por KG"}}, {"type": "node", "id": 4444417908, "lat": -33.5048907, "lon": -70.626836, "tags": {"source": "Reconocimiento cortogr\u00e1fico de campo 2016 por KG"}}, {"type": "node", "id": 4444417909, "lat": -33.5049021, "lon": -70.6269182, "tags": {"source": "Reconocimiento cortogr\u00e1fico de campo 2016 por KG"}}, {"type": "node", "id": 4444417910, "lat": -33.5049103, "lon": -70.6269776, "tags": {"source": "Reconocimiento cortogr\u00e1fico de campo 2016 por KG"}}, {"type": "node", "id": 4444417911, "lat": -33.5051206, "lon": -70.6269359, "tags": {"source": "Reconocimiento cortogr\u00e1fico de campo 2016 por KG"}}, {"type": "node", "id": 4444417912, "lat": -33.5051011, "lon": -70.6267943, "tags": {"source": "Reconocimiento cortogr\u00e1fico de campo 2016 por KG"}}, {"type": "node", "id": 4444417921, "lat": -33.5070663, "lon": -70.6264493, "tags": {"addr:street": "Avenida Las Industrias", "amenity": "pharmacy", "name": "Farmacia Ferco", "source": "Reconocimiento cortogr\u00e1fico de campo 2016 por KG"}}, {"type": "node", "id": 4444426838, "lat": -33.5161859, "lon": -70.6245286, "tags": {"addr:street": "Avenida Las Industrias", "amenity": "car_wash", "name": "R\u00e1pido y Brillaso", "source": "Reconocimiento cortogr\u00e1fico de campo 2016 por KG"}}, {"type": "node", "id": 4444472443, "lat": -33.479513, "lon": -70.6220779, "tags": {"source": "Reconocimiento cortogr\u00e1fico de campo 2016 por KG"}}, {"type": "node", "id": 4444472444, "lat": -33.4795607, "lon": -70.6223253, "tags": {"source": "Reconocimiento cortogr\u00e1fico de campo 2016 por KG"}}, {"type": "node", "id": 4444472445, "lat": -33.4794366, "lon": -70.6223597, "tags": {"source": "Reconocimiento cortogr\u00e1fico de campo 2016 por KG"}}, {"type": "node", "id": 4444472446, "lat": -33.4793889, "lon": -70.6221123, "tags": {"source": "Reconocimiento cortogr\u00e1fico de campo 2016 por KG"}}, {"type": "node", "id": 4444472447, "lat": -33.479553, "lon": -70.6222854, "tags": {"source": "Reconocimiento cortogr\u00e1fico de campo 2016 por KG"}}, {"type": "node", "id": 4444472450, "lat": -33.4797083, "lon": -70.6222523, "tags": {"source": "Reconocimiento cortogr\u00e1fico de campo 2016 por KG"}}, {"type": "node", "id": 4444472451, "lat": -33.4798155, "lon": -70.6222215, "tags": {"source": "Reconocimiento cortogr\u00e1fico de campo 2016 por KG"}}, {"type": "node", "id": 4444472452, "lat": -33.4798812, "lon": -70.62255, "tags": {"source": "Reconocimiento cortogr\u00e1fico de campo 2016 por KG"}}, {"type": "node", "id": 4444472453, "lat": -33.479774, "lon": -70.6225808, "tags": {"source": "Reconocimiento cortogr\u00e1fico de campo 2016 por KG"}}, {"type": "node", "id": 4452188426, "lat": -33.492026, "lon": -70.6333025, "tags": {"source": "Reconocimiento cartogr\u00e1fico 2016 por KG"}}, {"type": "node", "id": 4452188427, "lat": -33.4920304, "lon": -70.6331268, "tags": {"source": "Reconocimiento cartogr\u00e1fico 2016 por KG"}}, {"type": "node", "id": 4452188428, "lat": -33.4916887, "lon": -70.6331147, "tags": {"source": "Reconocimiento cartogr\u00e1fico 2016 por KG"}}, {"type": "node", "id": 4452188429, "lat": -33.4916843, "lon": -70.6332903, "tags": {"source": "Reconocimiento cartogr\u00e1fico 2016 por KG"}}, {"type": "node", "id": 4452188430, "lat": -33.4920338, "lon": -70.6330847, "tags": {"source": "Reconocimiento cartogr\u00e1fico 2016 por KG"}}, {"type": "node", "id": 4452188431, "lat": -33.4920402, "lon": -70.6328986, "tags": {"source": "Reconocimiento cartogr\u00e1fico 2016 por KG"}}, {"type": "node", "id": 4452188432, "lat": -33.4918222, "lon": -70.6328879, "tags": {"source": "Reconocimiento cartogr\u00e1fico 2016 por KG"}}, {"type": "node", "id": 4452188433, "lat": -33.4918158, "lon": -70.633074, "tags": {"source": "Reconocimiento cartogr\u00e1fico 2016 por KG"}}, {"type": "node", "id": 4452188434, "lat": -33.4919145, "lon": -70.63101}, {"type": "node", "id": 4452188435, "lat": -33.492021, "lon": -70.6310093}, {"type": "node", "id": 4452188436, "lat": -33.4920209, "lon": -70.6309857}, {"type": "node", "id": 4452188437, "lat": -33.4921041, "lon": -70.6309851}, {"type": "node", "id": 4452188438, "lat": -33.4921032, "lon": -70.6307773}, {"type": "node", "id": 4452188439, "lat": -33.4919134, "lon": -70.6307786}, {"type": "node", "id": 4452484975, "lat": -33.4922858, "lon": -70.631612, "tags": {"source": "Reconocimiento cartogr\u00e1fico 2016 por KG"}}, {"type": "node", "id": 4452484976, "lat": -33.492398, "lon": -70.6316152, "tags": {"source": "Reconocimiento cartogr\u00e1fico 2016 por KG"}}, {"type": "node", "id": 4452484977, "lat": -33.4924012, "lon": -70.6314561, "tags": {"source": "Reconocimiento cartogr\u00e1fico 2016 por KG"}}, {"type": "node", "id": 4452484978, "lat": -33.4924349, "lon": -70.6314571, "tags": {"source": "Reconocimiento cartogr\u00e1fico 2016 por KG"}}, {"type": "node", "id": 4452484979, "lat": -33.4924369, "lon": -70.6313568, "tags": {"source": "Reconocimiento cartogr\u00e1fico 2016 por KG"}}, {"type": "node", "id": 4452484980, "lat": -33.4925689, "lon": -70.6313607, "tags": {"source": "Reconocimiento cartogr\u00e1fico 2016 por KG"}}, {"type": "node", "id": 4452484981, "lat": -33.4925657, "lon": -70.6315215, "tags": {"source": "Reconocimiento cartogr\u00e1fico 2016 por KG"}}, {"type": "node", "id": 4452484982, "lat": -33.4926784, "lon": -70.6315248, "tags": {"source": "Reconocimiento cartogr\u00e1fico 2016 por KG"}}, {"type": "node", "id": 4452484983, "lat": -33.492684, "lon": -70.631244, "tags": {"source": "Reconocimiento cartogr\u00e1fico 2016 por KG"}}, {"type": "node", "id": 4452484984, "lat": -33.4922935, "lon": -70.6312327, "tags": {"source": "Reconocimiento cartogr\u00e1fico 2016 por KG"}}, {"type": "node", "id": 4452547297, "lat": -33.4904921, "lon": -70.6309978, "tags": {"source": "Reconocimiento cartogr\u00e1fico 2016 por KG"}}, {"type": "node", "id": 4452547298, "lat": -33.4904969, "lon": -70.6307949, "tags": {"source": "Reconocimiento cartogr\u00e1fico 2016 por KG"}}, {"type": "node", "id": 4452547299, "lat": -33.4904088, "lon": -70.6307919, "tags": {"source": "Reconocimiento cartogr\u00e1fico 2016 por KG"}}, {"type": "node", "id": 4452547300, "lat": -33.4904054, "lon": -70.6309365, "tags": {"source": "Reconocimiento cartogr\u00e1fico 2016 por KG"}}, {"type": "node", "id": 4452547301, "lat": -33.4904408, "lon": -70.630996, "tags": {"source": "Reconocimiento cartogr\u00e1fico 2016 por KG"}}, {"type": "node", "id": 4452571977, "lat": -33.4903569, "lon": -70.6323987}, {"type": "node", "id": 4452571978, "lat": -33.4905034, "lon": -70.6324038}, {"type": "node", "id": 4452571979, "lat": -33.4905084, "lon": -70.6322009}, {"type": "node", "id": 4452571980, "lat": -33.4903619, "lon": -70.6321958}, {"type": "node", "id": 4453556960, "lat": -33.4762376, "lon": -70.6322108, "tags": {"source": "Reconocimiento cartogr\u00e1fico 2016 por KG"}}, {"type": "node", "id": 4453556961, "lat": -33.4762261, "lon": -70.6320906, "tags": {"source": "Reconocimiento cartogr\u00e1fico 2016 por KG"}}, {"type": "node", "id": 4453556962, "lat": -33.476196, "lon": -70.6320759, "tags": {"source": "Reconocimiento cartogr\u00e1fico 2016 por KG"}}, {"type": "node", "id": 4453556963, "lat": -33.4761217, "lon": -70.6320964, "tags": {"source": "Reconocimiento cartogr\u00e1fico 2016 por KG"}}, {"type": "node", "id": 4453556964, "lat": -33.4761396, "lon": -70.6322369, "tags": {"source": "Reconocimiento cartogr\u00e1fico 2016 por KG"}}, {"type": "node", "id": 4453748873, "lat": -33.4956507, "lon": -70.6315044}, {"type": "node", "id": 4453748874, "lat": -33.4957079, "lon": -70.6315072}, {"type": "node", "id": 4453748875, "lat": -33.4957102, "lon": -70.6314397}, {"type": "node", "id": 4453748876, "lat": -33.4956956, "lon": -70.6314062}, {"type": "node", "id": 4453748877, "lat": -33.4956541, "lon": -70.6314042}, {"type": "node", "id": 4453815152, "lat": -33.4801408, "lon": -70.6304902, "tags": {"amenity": "restaurant", "name": "Cafeteria Mugguett", "source": "Reconocimiento cartogr\u00e1fico 2016 por KG"}}, {"type": "node", "id": 4453815154, "lat": -33.4796295, "lon": -70.6308942, "tags": {"source": "Reconocimiento cartogr\u00e1fico 2016 por KG"}}, {"type": "node", "id": 4453815155, "lat": -33.4797387, "lon": -70.630868, "tags": {"source": "Reconocimiento cartogr\u00e1fico 2016 por KG"}}, {"type": "node", "id": 4453815156, "lat": -33.4797141, "lon": -70.6307201, "tags": {"source": "Reconocimiento cartogr\u00e1fico 2016 por KG"}}, {"type": "node", "id": 4453815157, "lat": -33.4796048, "lon": -70.6307463, "tags": {"source": "Reconocimiento cartogr\u00e1fico 2016 por KG"}}, {"type": "node", "id": 4455775715, "lat": -33.4956463, "lon": -70.63632}, {"type": "node", "id": 4455775716, "lat": -33.4957289, "lon": -70.6363265}, {"type": "node", "id": 4455782289, "lat": -33.4951636, "lon": -70.6390752, "tags": {"source": "Reconocimiento cartogr\u00e1fico 2016 por KG."}}, {"type": "node", "id": 4456978502, "lat": -33.4956402, "lon": -70.6364295}, {"type": "node", "id": 4456978503, "lat": -33.4957228, "lon": -70.6364361}, {"type": "node", "id": 4458102321, "lat": -33.5097751, "lon": -70.6250533, "tags": {"source": "Reconocimiento cortogr\u00e1fico de campo 2016 por KG"}}, {"type": "node", "id": 4458102322, "lat": -33.5100431, "lon": -70.6250627, "tags": {"source": "Reconocimiento cortogr\u00e1fico de campo 2016 por KG"}}, {"type": "node", "id": 4458102323, "lat": -33.5100888, "lon": -70.6252229, "tags": {"source": "Reconocimiento cortogr\u00e1fico de campo 2016 por KG"}}, {"type": "node", "id": 4458102324, "lat": -33.5098272, "lon": -70.6252837, "tags": {"source": "Reconocimiento cortogr\u00e1fico de campo 2016 por KG"}}, {"type": "node", "id": 4458102325, "lat": -33.5099235, "lon": -70.6251034, "tags": {"source": "Reconocimiento cortogr\u00e1fico de campo 2016 por KG"}}, {"type": "node", "id": 4458102326, "lat": -33.5095498, "lon": -70.6249935, "tags": {"source": "Reconocimiento cortogr\u00e1fico de campo 2016 por KG"}}, {"type": "node", "id": 4458102327, "lat": -33.509546, "lon": -70.6250931, "tags": {"source": "Reconocimiento cortogr\u00e1fico de campo 2016 por KG"}}, {"type": "node", "id": 4458102328, "lat": -33.5095385, "lon": -70.6252384, "tags": {"source": "Reconocimiento cortogr\u00e1fico de campo 2016 por KG"}}, {"type": "node", "id": 4458102329, "lat": -33.5095373, "lon": -70.6252696, "tags": {"source": "Reconocimiento cortogr\u00e1fico de campo 2016 por KG"}}, {"type": "node", "id": 4458174346, "lat": -33.5079696, "lon": -70.6219292, "tags": {"source": "Reconocimiento cortogr\u00e1fico de campo 2016 por KG"}}, {"type": "node", "id": 4458174347, "lat": -33.5080383, "lon": -70.6219353, "tags": {"source": "Reconocimiento cortogr\u00e1fico de campo 2016 por KG"}}, {"type": "node", "id": 4458174348, "lat": -33.5080472, "lon": -70.6218123, "tags": {"source": "Reconocimiento cortogr\u00e1fico de campo 2016 por KG"}}, {"type": "node", "id": 4458174349, "lat": -33.5079774, "lon": -70.6218046, "tags": {"source": "Reconocimiento cortogr\u00e1fico de campo 2016 por KG"}}, {"type": "node", "id": 4458174365, "lat": -33.5082616, "lon": -70.61606, "tags": {"source": "Reconocimiento cortogr\u00e1fico de campo 2016 por KG"}}, {"type": "node", "id": 4458174366, "lat": -33.5083197, "lon": -70.6160649, "tags": {"source": "Reconocimiento cortogr\u00e1fico de campo 2016 por KG"}}, {"type": "node", "id": 4458174367, "lat": -33.5083246, "lon": -70.6159831, "tags": {"source": "Reconocimiento cortogr\u00e1fico de campo 2016 por KG"}}, {"type": "node", "id": 4458174368, "lat": -33.5082664, "lon": -70.6159782, "tags": {"source": "Reconocimiento cortogr\u00e1fico de campo 2016 por KG"}}, {"type": "node", "id": 4458192845, "lat": -33.5099325, "lon": -70.6122559, "tags": {"source": "Reconocimiento cortogr\u00e1fico de campo 2016 por KG"}}, {"type": "node", "id": 4458192846, "lat": -33.5099976, "lon": -70.6121873, "tags": {"source": "Reconocimiento cortogr\u00e1fico de campo 2016 por KG"}}, {"type": "node", "id": 4458192847, "lat": -33.5101361, "lon": -70.6123762, "tags": {"source": "Reconocimiento cortogr\u00e1fico de campo 2016 por KG"}}, {"type": "node", "id": 4458192848, "lat": -33.510071, "lon": -70.6124448, "tags": {"source": "Reconocimiento cortogr\u00e1fico de campo 2016 por KG"}}, {"type": "node", "id": 4458398182, "lat": -33.5124529, "lon": -70.6345683, "tags": {"source": "Reconocimiento cortogr\u00e1fico de campo 2016 por KG"}}, {"type": "node", "id": 4458398183, "lat": -33.5125206, "lon": -70.6345523, "tags": {"source": "Reconocimiento cortogr\u00e1fico de campo 2016 por KG"}}, {"type": "node", "id": 4458398184, "lat": -33.5124892, "lon": -70.6343612, "tags": {"source": "Reconocimiento cortogr\u00e1fico de campo 2016 por KG"}}, {"type": "node", "id": 4458398185, "lat": -33.5124215, "lon": -70.6343772, "tags": {"source": "Reconocimiento cortogr\u00e1fico de campo 2016 por KG"}}, {"type": "node", "id": 4458414083, "lat": -33.5124895, "lon": -70.6312269, "tags": {"source": "Reconocimiento cortogr\u00e1fico de campo 2016 por KG"}}, {"type": "node", "id": 4458414084, "lat": -33.5125324, "lon": -70.6312208, "tags": {"source": "Reconocimiento cortogr\u00e1fico de campo 2016 por KG"}}, {"type": "node", "id": 4458414085, "lat": -33.5125438, "lon": -70.6311973, "tags": {"source": "Reconocimiento cortogr\u00e1fico de campo 2016 por KG"}}, {"type": "node", "id": 4458414086, "lat": -33.5125335, "lon": -70.6310939, "tags": {"source": "Reconocimiento cortogr\u00e1fico de campo 2016 por KG"}}, {"type": "node", "id": 4458414087, "lat": -33.512477, "lon": -70.631102, "tags": {"source": "Reconocimiento cortogr\u00e1fico de campo 2016 por KG"}}, {"type": "node", "id": 4458441089, "lat": -33.518497, "lon": -70.6364218, "tags": {"source": "Reconocimiento cortogr\u00e1fico de campo 2016 por KG"}}, {"type": "node", "id": 4458441092, "lat": -33.5184884, "lon": -70.6363139, "tags": {"source": "Reconocimiento cortogr\u00e1fico de campo 2016 por KG"}}, {"type": "node", "id": 4458441093, "lat": -33.5185938, "lon": -70.6363853, "tags": {"addr:street": "Avenida Santa Rosa", "amenity": "restaurant", "delivery": "yes", "name": "Avenida Locazzo's", "source": "Reconocimiento cortogr\u00e1fico de campo 2016 por KG"}}, {"type": "node", "id": 4458441095, "lat": -33.51837, "lon": -70.6363299, "tags": {"source": "Reconocimiento cortogr\u00e1fico de campo 2016 por KG"}}, {"type": "node", "id": 4458441096, "lat": -33.5183765, "lon": -70.6364358, "tags": {"source": "Reconocimiento cortogr\u00e1fico de campo 2016 por KG"}}, {"type": "node", "id": 4458467334, "lat": -33.5126793, "lon": -70.6302687, "tags": {"source": "Reconocimiento cortogr\u00e1fico de campo 2016 por KG"}}, {"type": "node", "id": 4458467335, "lat": -33.5127554, "lon": -70.6302433, "tags": {"source": "Reconocimiento cortogr\u00e1fico de campo 2016 por KG"}}, {"type": "node", "id": 4458467336, "lat": -33.5127308, "lon": -70.6301374, "tags": {"source": "Reconocimiento cortogr\u00e1fico de campo 2016 por KG"}}, {"type": "node", "id": 4458467337, "lat": -33.5126547, "lon": -70.6301627, "tags": {"source": "Reconocimiento cortogr\u00e1fico de campo 2016 por KG"}}, {"type": "node", "id": 4462066451, "lat": -33.4952389, "lon": -70.6360435}, {"type": "node", "id": 4462066452, "lat": -33.495339, "lon": -70.6360518}, {"type": "node", "id": 4462066453, "lat": -33.4953403, "lon": -70.6360297}, {"type": "node", "id": 4462066454, "lat": -33.4953668, "lon": -70.6360319}, {"type": "node", "id": 4462066455, "lat": -33.4953707, "lon": -70.6359628}, {"type": "node", "id": 4462066456, "lat": -33.4953444, "lon": -70.6359607}, {"type": "node", "id": 4462066457, "lat": -33.4953456, "lon": -70.6359399}, {"type": "node", "id": 4462066458, "lat": -33.4952453, "lon": -70.6359316}, {"type": "node", "id": 4462184252, "lat": -33.4954713, "lon": -70.6381014}, {"type": "node", "id": 4462184253, "lat": -33.4955178, "lon": -70.6381048}, {"type": "node", "id": 4462184254, "lat": -33.4955122, "lon": -70.6382161}, {"type": "node", "id": 4462184255, "lat": -33.4954658, "lon": -70.6382127}, {"type": "node", "id": 4462184256, "lat": -33.495468, "lon": -70.6393873}, {"type": "node", "id": 4462184257, "lat": -33.4955331, "lon": -70.6393916}, {"type": "node", "id": 4462184258, "lat": -33.4955386, "lon": -70.6392698}, {"type": "node", "id": 4462184259, "lat": -33.4954736, "lon": -70.6392655}, {"type": "node", "id": 4475938189, "lat": -33.5091006, "lon": -70.6284977}, {"type": "node", "id": 4475938190, "lat": -33.5095514, "lon": -70.6283258}, {"type": "node", "id": 4475938191, "lat": -33.5094597, "lon": -70.6279799}, {"type": "node", "id": 4475938192, "lat": -33.5090089, "lon": -70.6281517}, {"type": "node", "id": 4475938198, "lat": -33.5079962, "lon": -70.6288535, "tags": {"source": "Reconocimiento cortogr\u00e1fico de campo 2016 por KG"}}, {"type": "node", "id": 4475938199, "lat": -33.5080652, "lon": -70.6288546, "tags": {"source": "Reconocimiento cortogr\u00e1fico de campo 2016 por KG"}}, {"type": "node", "id": 4475938200, "lat": -33.5080662, "lon": -70.6287688, "tags": {"source": "Reconocimiento cortogr\u00e1fico de campo 2016 por KG"}}, {"type": "node", "id": 4475938201, "lat": -33.5079972, "lon": -70.6287677, "tags": {"source": "Reconocimiento cortogr\u00e1fico de campo 2016 por KG"}}, {"type": "node", "id": 4475947585, "lat": -33.5031302, "lon": -70.6309971, "tags": {"source": "Reconocimiento cortogr\u00e1fico de campo 2016 por KG"}}, {"type": "node", "id": 4475947586, "lat": -33.5033389, "lon": -70.630975, "tags": {"source": "Reconocimiento cortogr\u00e1fico de campo 2016 por KG"}}, {"type": "node", "id": 4475947587, "lat": -33.5033352, "lon": -70.6309243, "tags": {"source": "Reconocimiento cortogr\u00e1fico de campo 2016 por KG"}}, {"type": "node", "id": 4475947588, "lat": -33.5033113, "lon": -70.6308873, "tags": {"source": "Reconocimiento cortogr\u00e1fico de campo 2016 por KG"}}, {"type": "node", "id": 4475947589, "lat": -33.5031236, "lon": -70.6309071, "tags": {"source": "Reconocimiento cortogr\u00e1fico de campo 2016 por KG"}}, {"type": "node", "id": 4475947599, "lat": -33.5026396, "lon": -70.634908}, {"type": "node", "id": 4475947600, "lat": -33.503098, "lon": -70.6348748}, {"type": "node", "id": 4475947601, "lat": -33.5030695, "lon": -70.6343094}, {"type": "node", "id": 4475947602, "lat": -33.5026111, "lon": -70.6343426}, {"type": "node", "id": 4475947603, "lat": -33.5035811, "lon": -70.6377808, "tags": {"source": "Reconocimiento cortogr\u00e1fico de campo 2016 por KG"}}, {"type": "node", "id": 4475947604, "lat": -33.5038219, "lon": -70.6377584, "tags": {"source": "Reconocimiento cortogr\u00e1fico de campo 2016 por KG"}}, {"type": "node", "id": 4475947605, "lat": -33.5038163, "lon": -70.637671, "tags": {"source": "Reconocimiento cortogr\u00e1fico de campo 2016 por KG"}}, {"type": "node", "id": 4475947606, "lat": -33.5037872, "lon": -70.6376428, "tags": {"source": "Reconocimiento cortogr\u00e1fico de campo 2016 por KG"}}, {"type": "node", "id": 4475947607, "lat": -33.5035735, "lon": -70.6376627, "tags": {"source": "Reconocimiento cortogr\u00e1fico de campo 2016 por KG"}}, {"type": "node", "id": 4475965077, "lat": -33.5031593, "lon": -70.632351, "tags": {"source": "Reconocimiento cortogr\u00e1fico de campo 2016 por KG"}}, {"type": "node", "id": 4475965078, "lat": -33.5032352, "lon": -70.632346, "tags": {"source": "Reconocimiento cortogr\u00e1fico de campo 2016 por KG"}}, {"type": "node", "id": 4475965079, "lat": -33.5032444, "lon": -70.6325446, "tags": {"source": "Reconocimiento cortogr\u00e1fico de campo 2016 por KG"}}, {"type": "node", "id": 4475965080, "lat": -33.5031685, "lon": -70.6325496, "tags": {"source": "Reconocimiento cortogr\u00e1fico de campo 2016 por KG"}}, {"type": "node", "id": 4475965086, "lat": -33.5034732, "lon": -70.6332629, "tags": {"source": "Reconocimiento cortogr\u00e1fico de campo 2016 por KG"}}, {"type": "node", "id": 4475965087, "lat": -33.5034646, "lon": -70.6331373, "tags": {"source": "Reconocimiento cortogr\u00e1fico de campo 2016 por KG"}}, {"type": "node", "id": 4475965088, "lat": -33.5035401, "lon": -70.6331299, "tags": {"source": "Reconocimiento cortogr\u00e1fico de campo 2016 por KG"}}, {"type": "node", "id": 4475966089, "lat": -33.5035468, "lon": -70.6332283, "tags": {"source": "Reconocimiento cortogr\u00e1fico de campo 2016 por KG"}}, {"type": "node", "id": 4475966090, "lat": -33.5035244, "lon": -70.6332578, "tags": {"source": "Reconocimiento cortogr\u00e1fico de campo 2016 por KG"}}, {"type": "node", "id": 4900627643, "lat": -33.4753285, "lon": -70.6261127}, {"type": "node", "id": 4900627644, "lat": -33.4752559, "lon": -70.62574}, {"type": "node", "id": 4900627645, "lat": -33.4752914, "lon": -70.6256797}, {"type": "node", "id": 4900627646, "lat": -33.4753359, "lon": -70.6256649}, {"type": "node", "id": 4900627647, "lat": -33.4753689, "lon": -70.6257005}, {"type": "node", "id": 4900627648, "lat": -33.4754439, "lon": -70.6260771}, {"type": "node", "id": 4944444119, "lat": -33.5079909, "lon": -70.6317635}, {"type": "node", "id": 5207003553, "lat": -33.5025323, "lon": -70.6161353}, {"type": "node", "id": 5207003564, "lat": -33.5032862, "lon": -70.6158229}, {"type": "node", "id": 5207003568, "lat": -33.5041171, "lon": -70.6156123}, {"type": "node", "id": 5207003592, "lat": -33.5032937, "lon": -70.6158768}, {"type": "node", "id": 5207003596, "lat": -33.5041306, "lon": -70.6157097}, {"type": "node", "id": 5207003597, "lat": -33.5025105, "lon": -70.6159802}, {"type": "node", "id": 5230980487, "lat": -33.5011098, "lon": -70.6180204, "tags": {"amenity": "fast_food", "cuisine": "regional"}}, {"type": "node", "id": 5231005494, "lat": -33.4997613, "lon": -70.6201215}, {"type": "node", "id": 5231005495, "lat": -33.4999377, "lon": -70.6200776}, {"type": "node", "id": 5231005496, "lat": -33.4999183, "lon": -70.6199659}, {"type": "node", "id": 5231005497, "lat": -33.499742, "lon": -70.6200098}, {"type": "node", "id": 5231005515, "lat": -33.4996913, "lon": -70.6181203, "tags": {"addr:housenumber": "43", "addr:street": "Manuel P\u00e9rez", "amenity": "community_centre", "name": "Junta Vecino Manuel Perezx"}}, {"type": "node", "id": 5609760374, "lat": -33.4893171, "lon": -70.6323048}, {"type": "node", "id": 5609760375, "lat": -33.4901723, "lon": -70.6326516}, {"type": "node", "id": 5609897179, "lat": -33.4871117, "lon": -70.6326049}, {"type": "node", "id": 5719031632, "lat": -33.5118385, "lon": -70.6247559}, {"type": "node", "id": 5719031633, "lat": -33.5117951, "lon": -70.6247439}, {"type": "node", "id": 5719031634, "lat": -33.5117796, "lon": -70.6248242}, {"type": "node", "id": 5719031635, "lat": -33.511823, "lon": -70.6248363}, {"type": "node", "id": 5721633155, "lat": -33.4926622, "lon": -70.6200853}, {"type": "node", "id": 5721633156, "lat": -33.4926976, "lon": -70.6190487}, {"type": "node", "id": 5721633157, "lat": -33.4931988, "lon": -70.6189402}, {"type": "node", "id": 5721633158, "lat": -33.4932428, "lon": -70.6190177}, {"type": "node", "id": 5721633159, "lat": -33.493322, "lon": -70.6190216}, {"type": "node", "id": 5721633160, "lat": -33.4932845, "lon": -70.6201158}, {"type": "node", "id": 5790590370, "lat": -33.5066901, "lon": -70.6369427, "tags": {"amenity": "fuel", "brand": "Shell", "brand:wikidata": "Q110716465", "name": "Shell"}}, {"type": "node", "id": 5790641801, "lat": -33.4977061, "lon": -70.6165527, "tags": {"amenity": "fuel", "brand": "Shell", "brand:wikidata": "Q110716465", "name": "Shell"}}, {"type": "node", "id": 5852243205, "lat": -33.4995299, "lon": -70.6173505}, {"type": "node", "id": 6071990930, "lat": -33.4816658, "lon": -70.6217114}, {"type": "node", "id": 6071990931, "lat": -33.4816189, "lon": -70.6214775}, {"type": "node", "id": 6071990932, "lat": -33.4814226, "lon": -70.621534}, {"type": "node", "id": 6071990933, "lat": -33.4814695, "lon": -70.621768}, {"type": "node", "id": 6071990940, "lat": -33.4798561, "lon": -70.6222424}, {"type": "node", "id": 6088960061, "lat": -33.4834442, "lon": -70.64119}, {"type": "node", "id": 6088960062, "lat": -33.4840298, "lon": -70.6411121}, {"type": "node", "id": 6088960063, "lat": -33.4837077, "lon": -70.6397573}, {"type": "node", "id": 6088960064, "lat": -33.4831339, "lon": -70.6398403}, {"type": "node", "id": 6088962515, "lat": -33.4838209, "lon": -70.6324646}, {"type": "node", "id": 6088962516, "lat": -33.4838492, "lon": -70.6323634}, {"type": "node", "id": 6088962517, "lat": -33.4837763, "lon": -70.6323342}, {"type": "node", "id": 6088962518, "lat": -33.4837626, "lon": -70.6323832}, {"type": "node", "id": 6088962519, "lat": -33.483701, "lon": -70.6323585}, {"type": "node", "id": 6088962520, "lat": -33.4836705, "lon": -70.6324679}, {"type": "node", "id": 6088962521, "lat": -33.4837455, "lon": -70.632498}, {"type": "node", "id": 6088962522, "lat": -33.4837614, "lon": -70.6324408}, {"type": "node", "id": 6093533992, "lat": -33.5072807, "lon": -70.6327475, "tags": {"access": "permissive", "barrier": "gate"}}, {"type": "node", "id": 6093534005, "lat": -33.5072843, "lon": -70.6328584, "tags": {"access": "permissive", "barrier": "gate"}}, {"type": "node", "id": 6103485446, "lat": -33.5011697, "lon": -70.6183146, "tags": {"addr:city": "San Joaqu\u00edn", "addr:country": "CL", "addr:housenumber": "50", "addr:street": "Capit\u00e1n Prat", "amenity": "childcare", "name": "Jard\u00edn Infantil", "note": "Correcciones masivas a ortograf\u00eda en nombres de importaciones hechas por equipo de gendarmer\u00eda"}}, {"type": "node", "id": 6247960376, "lat": -33.4916687, "lon": -70.61809}, {"type": "node", "id": 6637669258, "lat": -33.4793361, "lon": -70.6414595, "tags": {"addr:city": "San Joaquin", "addr:housenumber": "2660", "addr:street": "Avenida Santa Rosa", "amenity": "courthouse", "name": "Juzgado Polic\u00eda Local San Joaqu\u00edn"}}, {"type": "node", "id": 6655997817, "lat": -33.4793761, "lon": -70.6415281}, {"type": "node", "id": 6655997818, "lat": -33.4793757, "lon": -70.6413662}, {"type": "node", "id": 6655997819, "lat": -33.4791908, "lon": -70.6413667}, {"type": "node", "id": 6655997820, "lat": -33.4793221, "lon": -70.640923}, {"type": "node", "id": 6655997821, "lat": -33.4792158, "lon": -70.6408778}, {"type": "node", "id": 6655997822, "lat": -33.479145, "lon": -70.6411171}, {"type": "node", "id": 6655997823, "lat": -33.47908, "lon": -70.6410894}, {"type": "node", "id": 6655997824, "lat": -33.478969, "lon": -70.6414646}, {"type": "node", "id": 6655997825, "lat": -33.4789966, "lon": -70.6415189}, {"type": "node", "id": 6655997826, "lat": -33.4790831, "lon": -70.6415186}, {"type": "node", "id": 6655997827, "lat": -33.4790832, "lon": -70.6415555}, {"type": "node", "id": 6655997828, "lat": -33.4792155, "lon": -70.6415551}, {"type": "node", "id": 6655997829, "lat": -33.4792155, "lon": -70.6415286}, {"type": "node", "id": 6656006073, "lat": -33.5052265, "lon": -70.6330602}, {"type": "node", "id": 6804275675, "lat": -33.5000716, "lon": -70.616603, "tags": {"amenity": "charging_station", "brand": "Enel X", "brand:wikidata": "Q5376815", "capacity": "2", "name": "Enel X", "operator": "Enel X", "operator:wikidata": "Q5376815", "socket:type1": "1", "socket:type1:output": "22 kW", "socket:type2": "2", "socket:type2:output": "22 kW"}}, {"type": "node", "id": 6912918732, "lat": -33.5060473, "lon": -70.6207487}, {"type": "node", "id": 6912918734, "lat": -33.5056431, "lon": -70.619781}, {"type": "node", "id": 6912918735, "lat": -33.5063279, "lon": -70.62007}, {"type": "node", "id": 6912918736, "lat": -33.5064945, "lon": -70.6200306}, {"type": "node", "id": 6912918737, "lat": -33.5065954, "lon": -70.6206164}, {"type": "node", "id": 6980601254, "lat": -33.4858013, "lon": -70.6261495, "tags": {"amenity": "parking_entrance"}}, {"type": "node", "id": 6980601262, "lat": -33.485761, "lon": -70.6261481, "tags": {"amenity": "parking_entrance"}}, {"type": "node", "id": 7151829202, "lat": -33.5073758, "lon": -70.6158545, "tags": {"addr:city": "San Joaqu\u00edn", "addr:country": "CL", "addr:housenumber": "5486", "addr:street": "San Juan", "amenity": "theatre", "fixme": "Correcciones masivas de nombres con may\u00fasculas", "name": "CEAC"}}, {"type": "node", "id": 7253887776, "lat": -33.4868011, "lon": -70.6273702, "tags": {"addr:city": "San Joaquin", "addr:housenumber": "200", "addr:street": "Avenida Carlos Valdovinos", "amenity": "cinema", "name": "MUVIX Cinema", "screen": "8"}}, {"type": "node", "id": 7253887777, "lat": -33.4861837, "lon": -70.6278906, "tags": {"addr:city": "San Joaquin", "addr:housenumber": "3390", "addr:street": "Salom\u00f3n Sumar", "amenity": "restaurant", "cuisine": "italian", "name": "La Piccola Italia"}}, {"type": "node", "id": 7253887782, "lat": -33.4865152, "lon": -70.6272607, "tags": {"amenity": "atm"}}, {"type": "node", "id": 7253887783, "lat": -33.4860875, "lon": -70.6267748, "tags": {"amenity": "cafe", "name": "Caf\u00e9 La F\u00e1brica"}}, {"type": "node", "id": 7253887784, "lat": -33.4863431, "lon": -70.626535, "tags": {"alt_name": "Kentucky Fried Chicken", "amenity": "fast_food", "brand": "KFC", "brand:wikidata": "Q524757", "cuisine": "chicken", "name": "KFC", "takeaway": "yes"}}, {"type": "node", "id": 7254082785, "lat": -33.4863376, "lon": -70.6262458, "tags": {"amenity": "fast_food", "name": "Pedro Juan y Diego"}}, {"type": "node", "id": 7254082787, "lat": -33.4860801, "lon": -70.6256012, "tags": {"addr:city": "San Joaquin", "amenity": "pharmacy", "brand": "Farmacias del Dr. Simi", "brand:wikidata": "Q62564610", "dispensing": "yes", "healthcare": "pharmacy", "name": "Farmacias del Dr. Simi"}}, {"type": "node", "id": 7254082789, "lat": -33.4863421, "lon": -70.6264438, "tags": {"amenity": "fast_food", "name": "Tarragona"}}, {"type": "node", "id": 7591411360, "lat": -33.5003535, "lon": -70.6169173}, {"type": "node", "id": 7591411361, "lat": -33.50031, "lon": -70.6165852}, {"type": "node", "id": 7591411362, "lat": -33.4996315, "lon": -70.6167129}, {"type": "node", "id": 7591411363, "lat": -33.4996749, "lon": -70.6170451}, {"type": "node", "id": 7823067329, "lat": -33.4857688, "lon": -70.627962}, {"type": "node", "id": 7823067330, "lat": -33.4851995, "lon": -70.6279419}, {"type": "node", "id": 7823116487, "lat": -33.4852196, "lon": -70.6273149}, {"type": "node", "id": 7823116488, "lat": -33.4851631, "lon": -70.6278775}, {"type": "node", "id": 7823122308, "lat": -33.485119, "lon": -70.62774}, {"type": "node", "id": 7890687023, "lat": -33.4878722, "lon": -70.6195828, "tags": {"amenity": "parking", "fee": "no", "parking": "underground"}}, {"type": "node", "id": 8022204287, "lat": -33.4952417, "lon": -70.6390877}, {"type": "node", "id": 8022204288, "lat": -33.495175, "lon": -70.6396437}, {"type": "node", "id": 8022248285, "lat": -33.5000372, "lon": -70.6343464}, {"type": "node", "id": 8438770023, "lat": -33.4824109, "lon": -70.6318456, "tags": {"amenity": "veterinary", "name": "Cl\u00ednica Veterinaria Municipal San Joaqu\u00edn"}}, {"type": "node", "id": 9000136976, "lat": -33.4786503, "lon": -70.6366066, "tags": {"addr:city": "San Joaqu\u00edn", "addr:country": "CL", "addr:housenumber": "2514", "addr:street": "Avenida Yalta", "alt_name": "Centro de Salud Familiar", "amenity": "clinic", "healthcare": "doctor", "name": "CESFAM Yalta San Joaqu\u00edn", "official_name": "Centro de Salud Familiar", "phone": "225960889"}}, {"type": "node", "id": 9002367670, "lat": -33.4771107, "lon": -70.6418222}, {"type": "node", "id": 9150058064, "lat": -33.4981791, "lon": -70.616343, "tags": {"source": "Reconocimiento cortogr\u00e1fico de campo 2016 por KG"}}, {"type": "node", "id": 9150058065, "lat": -33.4982096, "lon": -70.6165617, "tags": {"source": "Reconocimiento cortogr\u00e1fico de campo 2016 por KG"}}, {"type": "node", "id": 9150058073, "lat": -33.4983873, "lon": -70.6164816, "tags": {"amenity": "fast_food", "brand": "Papa John's", "brand:wikidata": "Q2759586", "brand:wikipedia": "en:Papa John's Pizza", "cuisine": "pizza", "name": "Papa John's", "takeaway": "yes"}}, {"type": "node", "id": 9387178785, "lat": -33.4916925, "lon": -70.6197544}, {"type": "node", "id": 9387178786, "lat": -33.4914036, "lon": -70.6198152}, {"type": "node", "id": 9387178796, "lat": -33.4909393, "lon": -70.6199415}, {"type": "node", "id": 9387178799, "lat": -33.4906915, "lon": -70.6199933}, {"type": "node", "id": 9387178802, "lat": -33.4909223, "lon": -70.6199422}, {"type": "node", "id": 9388968296, "lat": -33.4903703, "lon": -70.6204726}, {"type": "node", "id": 9437119671, "lat": -33.4724498, "lon": -70.6265362, "tags": {"addr:housenumber": "2235", "addr:street": "Santa Elena", "amenity": "bank", "brand": "Scotiabank", "brand:wikidata": "Q451476", "name": "Scotiabank", "website": "https://www.scotiabank.cl/"}}, {"type": "node", "id": 9445499741, "lat": -33.4813748, "lon": -70.6221037}, {"type": "node", "id": 9445499742, "lat": -33.4815014, "lon": -70.6220675}, {"type": "node", "id": 9445499743, "lat": -33.4814407, "lon": -70.6217621}, {"type": "node", "id": 9445499744, "lat": -33.4813141, "lon": -70.6217983}, {"type": "node", "id": 9445499789, "lat": -33.481648, "lon": -70.6221346}, {"type": "node", "id": 9445499790, "lat": -33.4817085, "lon": -70.6224576}, {"type": "node", "id": 9445501876, "lat": -33.4798082, "lon": -70.6219997}, {"type": "node", "id": 9445501877, "lat": -33.4799138, "lon": -70.6219699}, {"type": "node", "id": 9445501878, "lat": -33.4799614, "lon": -70.6222127}, {"type": "node", "id": 9445852253, "lat": -33.4755498, "lon": -70.6258854}, {"type": "node", "id": 9445852254, "lat": -33.4756966, "lon": -70.6258446}, {"type": "node", "id": 9445852255, "lat": -33.4756671, "lon": -70.6256804}, {"type": "node", "id": 9445852256, "lat": -33.47554, "lon": -70.6257201}, {"type": "node", "id": 9445852257, "lat": -33.4755239, "lon": -70.6257534}, {"type": "node", "id": 9445986961, "lat": -33.4798332, "lon": -70.6258003}, {"type": "node", "id": 9445986962, "lat": -33.4801291, "lon": -70.6257135}, {"type": "node", "id": 9445986963, "lat": -33.4800929, "lon": -70.6255451}, {"type": "node", "id": 9445986964, "lat": -33.4797987, "lon": -70.6256292}, {"type": "node", "id": 9445986966, "lat": -33.4799372, "lon": -70.6257698}, {"type": "node", "id": 9448661690, "lat": -33.4796093, "lon": -70.6307731}, {"type": "node", "id": 9448661693, "lat": -33.4795092, "lon": -70.630725}, {"type": "node", "id": 9448661694, "lat": -33.4794934, "lon": -70.6306416}, {"type": "node", "id": 9448661695, "lat": -33.4795205, "lon": -70.6308007}, {"type": "node", "id": 9448661696, "lat": -33.4793989, "lon": -70.6306664}, {"type": "node", "id": 9448661697, "lat": -33.4794125, "lon": -70.6307577}, {"type": "node", "id": 9448661698, "lat": -33.4794713, "lon": -70.6307417}, {"type": "node", "id": 9448661699, "lat": -33.4794829, "lon": -70.6308125}, {"type": "node", "id": 9448666233, "lat": -33.4760302, "lon": -70.6318924}, {"type": "node", "id": 9448666234, "lat": -33.476003, "lon": -70.6317035}, {"type": "node", "id": 9448666235, "lat": -33.4759467, "lon": -70.6319159}, {"type": "node", "id": 9448666236, "lat": -33.4759189, "lon": -70.63173}, {"type": "node", "id": 9448666431, "lat": -33.479192, "lon": -70.6323638}, {"type": "node", "id": 9448666432, "lat": -33.4793056, "lon": -70.6323331}, {"type": "node", "id": 9448666433, "lat": -33.4792676, "lon": -70.6320878}, {"type": "node", "id": 9448666436, "lat": -33.4792866, "lon": -70.6322104}, {"type": "node", "id": 9448666446, "lat": -33.4791533, "lon": -70.6321179}, {"type": "node", "id": 9448666454, "lat": -33.4792243, "lon": -70.6320992}, {"type": "node", "id": 9448782791, "lat": -33.4741915, "lon": -70.6326815}, {"type": "node", "id": 9448782792, "lat": -33.4741757, "lon": -70.6326068}, {"type": "node", "id": 9448782794, "lat": -33.4741969, "lon": -70.6327019}, {"type": "node", "id": 9448782795, "lat": -33.4742568, "lon": -70.6326848}, {"type": "node", "id": 9448782796, "lat": -33.4742409, "lon": -70.6325901}, {"type": "node", "id": 9448838997, "lat": -33.4765367, "lon": -70.6322021}, {"type": "node", "id": 9448838998, "lat": -33.4764356, "lon": -70.6322295}, {"type": "node", "id": 9448838999, "lat": -33.4764074, "lon": -70.6320509}, {"type": "node", "id": 9448839000, "lat": -33.4764196, "lon": -70.6320139}, {"type": "node", "id": 9448839001, "lat": -33.4765053, "lon": -70.6319915}, {"type": "node", "id": 9448839004, "lat": -33.4765245, "lon": -70.6321204}, {"type": "node", "id": 9448839025, "lat": -33.4761907, "lon": -70.6322233}, {"type": "node", "id": 9448913800, "lat": -33.4753093, "lon": -70.6332779, "tags": {"amenity": "restaurant"}}, {"type": "node", "id": 9448935091, "lat": -33.4747235, "lon": -70.6342997}, {"type": "node", "id": 9448935092, "lat": -33.4746596, "lon": -70.6343194}, {"type": "node", "id": 9448935093, "lat": -33.4746254, "lon": -70.6343088}, {"type": "node", "id": 9448935094, "lat": -33.4745746, "lon": -70.6341761}, {"type": "node", "id": 9448935095, "lat": -33.4746937, "lon": -70.6341326}, {"type": "node", "id": 9448935099, "lat": -33.4746307, "lon": -70.6341556}, {"type": "node", "id": 9448935132, "lat": -33.4747035, "lon": -70.6341876}, {"type": "node", "id": 9453295843, "lat": -33.4897656, "lon": -70.6203226}, {"type": "node", "id": 9453295845, "lat": -33.4894393, "lon": -70.6183822}, {"type": "node", "id": 9456231881, "lat": -33.4839268, "lon": -70.630059}, {"type": "node", "id": 9456231882, "lat": -33.4835775, "lon": -70.6298984}, {"type": "node", "id": 9456231883, "lat": -33.4835436, "lon": -70.6300043}, {"type": "node", "id": 9456231884, "lat": -33.483586, "lon": -70.6300237}, {"type": "node", "id": 9456231885, "lat": -33.4834593, "lon": -70.6304195}, {"type": "node", "id": 9456231886, "lat": -33.4837712, "lon": -70.630563}, {"type": "node", "id": 9456231887, "lat": -33.4838109, "lon": -70.6304388}, {"type": "node", "id": 9456231888, "lat": -33.4837563, "lon": -70.6304137}, {"type": "node", "id": 9456231889, "lat": -33.4838495, "lon": -70.6301222}, {"type": "node", "id": 9456231890, "lat": -33.4838993, "lon": -70.630145}, {"type": "node", "id": 9826534630, "lat": -33.5004703, "lon": -70.6160312, "tags": {"amenity": "fast_food", "brand": "Little Caesars", "brand:wikidata": "Q1393809", "cuisine": "pizza", "name": "Little Caesars", "takeaway": "yes"}}, {"type": "node", "id": 10075990537, "lat": -33.496841, "lon": -70.6172906}, {"type": "node", "id": 10075990538, "lat": -33.4973622, "lon": -70.6171833}, {"type": "node", "id": 10075990539, "lat": -33.4972683, "lon": -70.6165744}, {"type": "node", "id": 10075990540, "lat": -33.4972213, "lon": -70.6165208}, {"type": "node", "id": 10075990541, "lat": -33.4967426, "lon": -70.61662}, {"type": "node", "id": 10080789794, "lat": -33.5096585, "lon": -70.6132238}, {"type": "node", "id": 10080789795, "lat": -33.5096671, "lon": -70.6136263}, {"type": "node", "id": 10080854692, "lat": -33.510177, "lon": -70.6221411}, {"type": "node", "id": 10080854693, "lat": -33.5101308, "lon": -70.6221605}, {"type": "node", "id": 10080854694, "lat": -33.5100782, "lon": -70.6219794}, {"type": "node", "id": 10080854695, "lat": -33.5101244, "lon": -70.6219601}, {"type": "node", "id": 10080854696, "lat": -33.5098542, "lon": -70.6229098}, {"type": "node", "id": 10080854697, "lat": -33.5097357, "lon": -70.6229567}, {"type": "node", "id": 10080854698, "lat": -33.509795, "lon": -70.6231447}, {"type": "node", "id": 10080854699, "lat": -33.5099101, "lon": -70.6230987}, {"type": "node", "id": 10080870660, "lat": -33.5113645, "lon": -70.6221015}, {"type": "node", "id": 10080870661, "lat": -33.511352, "lon": -70.622387}, {"type": "node", "id": 10080870662, "lat": -33.5112877, "lon": -70.6223881}, {"type": "node", "id": 10080870663, "lat": -33.5112933, "lon": -70.6222674}, {"type": "node", "id": 10080870664, "lat": -33.511224, "lon": -70.622262}, {"type": "node", "id": 10080870665, "lat": -33.5111882, "lon": -70.6221239}, {"type": "node", "id": 10080870666, "lat": -33.5112173, "lon": -70.6221226}, {"type": "node", "id": 10080870667, "lat": -33.5112184, "lon": -70.6220917}, {"type": "node", "id": 10281639498, "lat": -33.5105272, "lon": -70.6236482}, {"type": "node", "id": 10281639499, "lat": -33.5107093, "lon": -70.623578}, {"type": "node", "id": 10281639500, "lat": -33.5107482, "lon": -70.6237232}, {"type": "node", "id": 10281639501, "lat": -33.5105662, "lon": -70.6237934}, {"type": "node", "id": 10281666073, "lat": -33.5135495, "lon": -70.6308658}, {"type": "node", "id": 10281666075, "lat": -33.5136319, "lon": -70.6308536}, {"type": "node", "id": 10281666076, "lat": -33.5135782, "lon": -70.6303291}, {"type": "node", "id": 10539080269, "lat": -33.4770985, "lon": -70.6414674}, {"type": "node", "id": 10539080270, "lat": -33.4767252, "lon": -70.6414716}, {"type": "node", "id": 10539080271, "lat": -33.4767353, "lon": -70.6418325}, {"type": "node", "id": 10695614872, "lat": -33.5072863, "lon": -70.6329194}, {"type": "node", "id": 10695614873, "lat": -33.507279, "lon": -70.6326961}, {"type": "node", "id": 10695614874, "lat": -33.5072187, "lon": -70.632688}, {"type": "node", "id": 10695614875, "lat": -33.5071974, "lon": -70.6326693}, {"type": "node", "id": 10695614876, "lat": -33.5072209, "lon": -70.6329227}, {"type": "node", "id": 10695614877, "lat": -33.5071935, "lon": -70.6329697}, {"type": "node", "id": 10695644399, "lat": -33.5071879, "lon": -70.6331407}, {"type": "node", "id": 10825692901, "lat": -33.4870696, "lon": -70.6192133, "tags": {"amenity": "fuel", "brand": "Copec", "brand:wikidata": "Q1130956", "name": "Copec"}}, {"type": "node", "id": 10895319686, "lat": -33.5113758, "lon": -70.6233406, "tags": {"amenity": "bench", "backrest": "yes", "material": "wood", "seats": "4"}}, {"type": "node", "id": 10895319687, "lat": -33.5112858, "lon": -70.6233687, "tags": {"amenity": "bench", "backrest": "yes", "material": "wood", "seats": "4"}}, {"type": "node", "id": 10895319688, "lat": -33.5113518, "lon": -70.6234847, "tags": {"amenity": "bench", "backrest": "yes", "material": "wood", "seats": "4"}}, {"type": "node", "id": 10895319690, "lat": -33.5113829, "lon": -70.6233035, "tags": {"amenity": "waste_basket"}}, {"type": "node", "id": 10942884536, "lat": -33.4796927, "lon": -70.6337968, "tags": {"amenity": "bench"}}, {"type": "node", "id": 10942884537, "lat": -33.4797068, "lon": -70.6337398, "tags": {"amenity": "bench"}}, {"type": "node", "id": 10942884538, "lat": -33.4797261, "lon": -70.633672, "tags": {"amenity": "bench"}}, {"type": "node", "id": 10942884539, "lat": -33.4797415, "lon": -70.6336088, "tags": {"amenity": "bench"}}, {"type": "node", "id": 10942884540, "lat": -33.4798301, "lon": -70.6336443, "tags": {"amenity": "bench"}}, {"type": "node", "id": 10942884541, "lat": -33.4798147, "lon": -70.6337074, "tags": {"amenity": "bench"}}, {"type": "node", "id": 10942884542, "lat": -33.4797955, "lon": -70.6337752, "tags": {"amenity": "bench"}}, {"type": "node", "id": 10942884543, "lat": -33.4797813, "lon": -70.6338322, "tags": {"amenity": "bench"}}, {"type": "node", "id": 10942893183, "lat": -33.4786818, "lon": -70.638528, "tags": {"amenity": "bench"}}, {"type": "node", "id": 10942893184, "lat": -33.4787097, "lon": -70.6384717, "tags": {"amenity": "bench"}}, {"type": "node", "id": 10942893185, "lat": -33.4787478, "lon": -70.638406, "tags": {"amenity": "bench"}}, {"type": "node", "id": 10942893186, "lat": -33.478788, "lon": -70.6383242, "tags": {"amenity": "bench"}}, {"type": "node", "id": 10942893187, "lat": -33.4788227, "lon": -70.638249, "tags": {"amenity": "bench"}}, {"type": "node", "id": 10942893210, "lat": -33.47823, "lon": -70.6358807}, {"type": "node", "id": 10942893211, "lat": -33.478352, "lon": -70.6367495}, {"type": "node", "id": 10942893212, "lat": -33.4785178, "lon": -70.636711}, {"type": "node", "id": 10942893213, "lat": -33.4785011, "lon": -70.6364784}, {"type": "node", "id": 10942893214, "lat": -33.4786848, "lon": -70.6364892}, {"type": "node", "id": 10942893435, "lat": -33.4797806, "lon": -70.6342395, "tags": {"amenity": "bench"}}, {"type": "node", "id": 10942893436, "lat": -33.4797962, "lon": -70.634159, "tags": {"amenity": "bench"}}, {"type": "node", "id": 10973869435, "lat": -33.4965808, "lon": -70.6286953, "tags": {"addr:city": "San Joaqu\u00edn", "addr:housenumber": "4349", "addr:street": "Avenida Las Industrias", "amenity": "school", "name": "Colegio Polivalente Adventista Santiago Sur"}}, {"type": "node", "id": 10973929097, "lat": -33.4921063, "lon": -70.6188425, "tags": {"addr:city": "San Joaqu\u00edn", "addr:housenumber": "125", "addr:street": "El Pinar", "amenity": "school", "name": "Liceo Industrial Del Verbo Divino"}}, {"type": "node", "id": 10977350509, "lat": -33.5005305, "lon": -70.6342395, "tags": {"addr:city": "San Joaqu\u00edn", "addr:housenumber": "401", "addr:street": "Ureta Cox", "amenity": "school", "name": "Escuela Especial de Adultos"}}, {"type": "node", "id": 10985336331, "lat": -33.4989112, "lon": -70.6171953, "tags": {"addr:city": "San Joaqu\u00edn", "addr:country": "CL", "addr:housenumber": "4835", "addr:street": "Avenida Vicu\u00f1a Mackenna", "amenity": "university", "name": "Centro de Formaci\u00f3n T\u00e9cnica Santo Tom\u00e1s San Joaqu\u00edn", "note": "Correcciones masivas a ortograf\u00eda en nombres de importaciones hechas por equipo de gendarmer\u00eda"}}, {"type": "node", "id": 11053909267, "lat": -33.4886983, "lon": -70.6360775}, {"type": "node", "id": 11053909268, "lat": -33.4888795, "lon": -70.6354901}, {"type": "node", "id": 11053909269, "lat": -33.4884276, "lon": -70.635238}, {"type": "node", "id": 11053909270, "lat": -33.4883337, "lon": -70.6355196}, {"type": "node", "id": 11053909271, "lat": -33.4884231, "lon": -70.6355679}, {"type": "node", "id": 11053909272, "lat": -33.4899403, "lon": -70.6227197}, {"type": "node", "id": 11053909273, "lat": -33.4898602, "lon": -70.6222316}, {"type": "node", "id": 11053909274, "lat": -33.4885213, "lon": -70.6225475}, {"type": "node", "id": 11053909283, "lat": -33.4930841, "lon": -70.6316413}, {"type": "node", "id": 11053909284, "lat": -33.4930886, "lon": -70.6312712}, {"type": "node", "id": 11053909285, "lat": -33.4927531, "lon": -70.6312712}, {"type": "node", "id": 11053909286, "lat": -33.4930886, "lon": -70.6263359}, {"type": "node", "id": 11053909287, "lat": -33.4930573, "lon": -70.6271412}, {"type": "node", "id": 11176644024, "lat": -33.5078181, "lon": -70.62591, "tags": {"amenity": "waste_basket", "material": "metal"}}, {"type": "node", "id": 11176644025, "lat": -33.5078268, "lon": -70.6259575, "tags": {"amenity": "waste_basket", "material": "metal"}}, {"type": "node", "id": 11176644026, "lat": -33.5078232, "lon": -70.6259339, "tags": {"amenity": "bench", "backrest": "no", "colour": "grey", "material": "concrete", "seats": "4"}}, {"type": "node", "id": 11176644027, "lat": -33.5078291, "lon": -70.6259788, "tags": {"amenity": "bench", "backrest": "yes", "colour": "grey", "material": "concrete", "seats": "4"}}, {"type": "node", "id": 11176653287, "lat": -33.5098403, "lon": -70.6250312}, {"type": "node", "id": 11176653288, "lat": -33.5098511, "lon": -70.6250771}, {"type": "node", "id": 11176946166, "lat": -33.5108054, "lon": -70.6235338}, {"type": "node", "id": 11176946167, "lat": -33.5107976, "lon": -70.6245417}, {"type": "node", "id": 11176946168, "lat": -33.5107618, "lon": -70.6244071}, {"type": "node", "id": 11194963792, "lat": -33.4743722, "lon": -70.6294466}, {"type": "node", "id": 11194963793, "lat": -33.4751888, "lon": -70.6292535}, {"type": "node", "id": 11194963794, "lat": -33.4750703, "lon": -70.6285669}, {"type": "node", "id": 11194963795, "lat": -33.4743029, "lon": -70.6286688}, {"type": "node", "id": 11194963834, "lat": -33.4722451, "lon": -70.6256918}, {"type": "node", "id": 11194963835, "lat": -33.472496, "lon": -70.625667}, {"type": "node", "id": 11194963836, "lat": -33.4727573, "lon": -70.6255892}, {"type": "node", "id": 11194963837, "lat": -33.4726717, "lon": -70.6249238}, {"type": "node", "id": 11194963838, "lat": -33.4721344, "lon": -70.6250618}, {"type": "node", "id": 11194963839, "lat": -33.4727273, "lon": -70.6253557}, {"type": "node", "id": 11194963840, "lat": -33.4729064, "lon": -70.6250831}, {"type": "node", "id": 11194963841, "lat": -33.4726992, "lon": -70.6251375}, {"type": "node", "id": 11194963842, "lat": -33.4725138, "lon": -70.6263511}, {"type": "node", "id": 11194963843, "lat": -33.4730779, "lon": -70.6261801}, {"type": "node", "id": 11194963844, "lat": -33.4730972, "lon": -70.6261508}, {"type": "node", "id": 11194963845, "lat": -33.4729802, "lon": -70.6255192}, {"type": "node", "id": 11194963846, "lat": -33.4722927, "lon": -70.626083}, {"type": "node", "id": 11194963847, "lat": -33.4724495, "lon": -70.6260306}, {"type": "node", "id": 11194963855, "lat": -33.4728782, "lon": -70.6242385}, {"type": "node", "id": 11194963856, "lat": -33.47318, "lon": -70.6241579}, {"type": "node", "id": 11194963857, "lat": -33.4731075, "lon": -70.6237676}, {"type": "node", "id": 11194963858, "lat": -33.4728056, "lon": -70.6238482}, {"type": "node", "id": 11210392480, "lat": -33.4988877, "lon": -70.6328255, "tags": {"addr:country": "CL", "alt_name": "Centro Comunitario de Salud Familiar", "amenity": "doctors", "healthcare": "hospital", "name": "CECOSF Mart\u00edn Henr\u00edquez", "official_name": "Centro Comunitario de Salud Familiar"}}, {"type": "node", "id": 11210598676, "lat": -33.4867703, "lon": -70.6236869, "tags": {"addr:city": "San Jaoqu\u00edn", "addr:country": "CL", "addr:housenumber": "3223", "addr:street": "Francisca de Rimini", "alt_name": "Centro de Salud Familiar", "amenity": "clinic", "healthcare": "clinic", "name": "CESFAM/ SAPU San Joaqu\u00edn", "official_name": "Centro de Salud Familiar"}}, {"type": "node", "id": 11239900443, "lat": -33.4917934, "lon": -70.6382365, "tags": {"addr:city": "San Joaqu\u00edn", "addr:country": "CL", "addr:housenumber": "569", "addr:street": "\u00c1lvarez de Toledo", "alt_name": "Centro Comunitario de Salud Mental", "amenity": "doctors", "healthcare": "clinic", "healthcare:speciality": "psychiatry", "name": "COSAM San Joaqu\u00edn", "official_name": "Centro Comunitario de Salud Mental"}}, {"type": "node", "id": 11241038190, "lat": -33.4861141, "lon": -70.6325325, "tags": {"addr:city": "San Joaqu\u00edn", "addr:country": "CL", "addr:housenumber": "3208", "addr:street": "Sierra Bella", "alt_name": "Centro Comunitario de Salud Familiar", "amenity": "doctors", "healthcare": "clinic", "name": "CECOSF Sierra Bella", "official_name": "Centro Comunitario de Salud Familiar"}}, {"type": "node", "id": 11242147641, "lat": -33.5126246, "lon": -70.6366089, "tags": {"addr:city": "San Joaqu\u00edn", "addr:country": "CL", "addr:housenumber": "472", "addr:street": "Juan Aravena", "alt_name": "Centro Comunitario de Salud Familiar", "amenity": "doctors", "healthcare": "clinic", "name": "CECOSF Juan Aravena", "official_name": "Centro Comunitario de Salud Familiar"}}, {"type": "node", "id": 11242154049, "lat": -33.4981522, "lon": -70.6242446, "tags": {"addr:city": "San Joaquin", "addr:country": "CL", "addr:street": "Reverendo Javier Per\u00f3", "alt_name": "Centro Comunitario de Salud Familiar", "amenity": "doctors", "healthcare": "clinic", "name": "CECOSF Reverendo Javier Per\u00f3", "official_name": "Centro Comunitario de Salud Familiar"}}, {"type": "node", "id": 11346035865, "lat": -33.5062577, "lon": -70.6381614, "tags": {"amenity": "post_office", "contact:email": "Z86@PULLMANCARGO.CL", "contact:phone": "+56 2 2616 0127", "contact:website": "https://www.pullmango.cl", "name": "Pullman Go", "opening_hours": "Mo-Fr 09:00-18:00; Sa 09:00-14:00"}}, {"type": "node", "id": 11396874381, "lat": -33.5005312, "lon": -70.6250865}, {"type": "node", "id": 11396874382, "lat": -33.5007284, "lon": -70.6250799}, {"type": "node", "id": 11396874383, "lat": -33.5007268, "lon": -70.6250121}, {"type": "node", "id": 11396874384, "lat": -33.500788, "lon": -70.62501}, {"type": "node", "id": 11396874385, "lat": -33.5007873, "lon": -70.624982}, {"type": "node", "id": 11396874386, "lat": -33.5007653, "lon": -70.6249827}, {"type": "node", "id": 11396874387, "lat": -33.5007593, "lon": -70.6247275}, {"type": "node", "id": 11396874388, "lat": -33.5006252, "lon": -70.624732}, {"type": "node", "id": 11396874389, "lat": -33.5006271, "lon": -70.6248135}, {"type": "node", "id": 11396874390, "lat": -33.5006688, "lon": -70.6248121}, {"type": "node", "id": 11396874391, "lat": -33.5006691, "lon": -70.6248252}, {"type": "node", "id": 11396874392, "lat": -33.5006256, "lon": -70.6248266}, {"type": "node", "id": 11396874393, "lat": -33.500627, "lon": -70.6248859}, {"type": "node", "id": 11396874394, "lat": -33.500689, "lon": -70.6248838}, {"type": "node", "id": 11396874395, "lat": -33.5006911, "lon": -70.6249752}, {"type": "node", "id": 11396874396, "lat": -33.5005287, "lon": -70.6249806}, {"type": "node", "id": 11401082312, "lat": -33.5023561, "lon": -70.628124, "tags": {"addr:city": "San Joaqu\u00edn", "addr:country": "CL", "addr:housenumber": "4986", "addr:street": "Tom\u00e1s de Campanella", "amenity": "school", "name": "Escuela Especial Ni\u00f1o de Jes\u00fas San Joaqu\u00edn", "note": "Correcciones masivas a ortograf\u00eda en nombres de importaciones hechas por equipo de gendarmer\u00eda"}}, {"type": "node", "id": 11408398656, "lat": -33.5109248, "lon": -70.61777, "tags": {"addr:city": "San Joaqu\u00edn", "addr:country": "CL", "addr:housenumber": "127", "addr:street": "Varas Mena", "amenity": "school", "name": "Escuela de P\u00e1rvulos Andalue", "note": "Correcciones masivas a ortograf\u00eda en nombres de importaciones hechas por equipo de gendarmer\u00eda"}}, {"type": "node", "id": 11412038595, "lat": -33.5137805, "lon": -70.6353391, "tags": {"addr:city": "San Joaqu\u00edn", "addr:housenumber": "461", "addr:street": "El Cortijo", "amenity": "school", "name": "Sociedad Educacional Luz de Esperanza"}}, {"type": "node", "id": 11414726910, "lat": -33.4809278, "lon": -70.6278784, "tags": {"addr:city": "San Joaqu\u00edn", "addr:housenumber": "3068", "addr:street": "Stravinsky", "amenity": "kindergarten", "name": "Jardin palabras magicas"}}, {"type": "node", "id": 11414970533, "lat": -33.4916996, "lon": -70.6204606, "tags": {"addr:city": "San Joaquin", "addr:housenumber": "125", "addr:street": "El Pinar", "amenity": "school", "name": "Escuela Para Sordos Dr. Otte Gabler"}}, {"type": "node", "id": 11429262841, "lat": -33.4962324, "lon": -70.6296962, "tags": {"addr:city": "San Joaqu\u00edn", "addr:housenumber": "244", "addr:street": "Avenida Presidente Salvador Allende Gossens", "amenity": "school", "name": "Escuela Particular N\u00b0333 el \u00c1ngel"}}, {"type": "node", "id": 11527064222, "lat": -33.4829574, "lon": -70.6241778}, {"type": "node", "id": 11527064223, "lat": -33.4828306, "lon": -70.6235788}, {"type": "node", "id": 11527064224, "lat": -33.4830981, "lon": -70.6235047}, {"type": "node", "id": 11527064225, "lat": -33.4832171, "lon": -70.6241037}, {"type": "node", "id": 11584718462, "lat": -33.506011, "lon": -70.6205326}, {"type": "node", "id": 11584718463, "lat": -33.5057958, "lon": -70.6205845}, {"type": "node", "id": 11584718464, "lat": -33.5057774, "lon": -70.620475}, {"type": "node", "id": 11584718465, "lat": -33.5059209, "lon": -70.6199756}, {"type": "node", "id": 11584718466, "lat": -33.5055225, "lon": -70.6198109}, {"type": "node", "id": 11584718467, "lat": -33.5049488, "lon": -70.6199369}, {"type": "node", "id": 11584718468, "lat": -33.5049298, "lon": -70.6199597}, {"type": "node", "id": 11584724069, "lat": -33.5049175, "lon": -70.6199932}, {"type": "node", "id": 11584724070, "lat": -33.504856, "lon": -70.6210581}, {"type": "node", "id": 11584856056, "lat": -33.5011647, "lon": -70.6157482, "tags": {"source": "Reconocimiento cortogr\u00e1fico de campo 2016 por KG"}}, {"type": "node", "id": 11584856057, "lat": -33.5033735, "lon": -70.6175689, "tags": {"source": "Reconocimiento cortogr\u00e1fico de campo 2016 por KG"}}, {"type": "node", "id": 11584856058, "lat": -33.5032588, "lon": -70.616698, "tags": {"source": "Reconocimiento cortogr\u00e1fico de campo 2016 por KG"}}, {"type": "node", "id": 11584856059, "lat": -33.501136, "lon": -70.615851}, {"type": "node", "id": 11584856060, "lat": -33.503739, "lon": -70.6177896}, {"type": "node", "id": 11584856061, "lat": -33.5036955, "lon": -70.6175079}, {"type": "node", "id": 11584856062, "lat": -33.5012117, "lon": -70.6171617}, {"type": "node", "id": 11584856063, "lat": -33.5024236, "lon": -70.6171053}, {"type": "node", "id": 11584856064, "lat": -33.5024771, "lon": -70.6175979}, {"type": "node", "id": 11584856066, "lat": -33.5033547, "lon": -70.6174372}, {"type": "node", "id": 11801037849, "lat": -33.4915237, "lon": -70.6209817}, {"type": "node", "id": 11801037850, "lat": -33.4916874, "lon": -70.620945}, {"type": "node", "id": 11801037851, "lat": -33.4917302, "lon": -70.6198884}, {"type": "node", "id": 11801037852, "lat": -33.4913676, "lon": -70.6199636}, {"type": "node", "id": 11902298051, "lat": -33.4717376, "lon": -70.6246489, "tags": {"amenity": "parking_entrance", "parking": "underground"}}, {"type": "node", "id": 11903000494, "lat": -33.5015054, "lon": -70.6277207}, {"type": "node", "id": 11903065595, "lat": -33.5015143, "lon": -70.6276402}, {"type": "node", "id": 11903065596, "lat": -33.5014349, "lon": -70.6276319}, {"type": "node", "id": 11989000928, "lat": -33.4905566, "lon": -70.6181177}, {"type": "node", "id": 12011178944, "lat": -33.5182838, "lon": -70.634416, "tags": {"amenity": "school", "name": "Escuela de Parvulos Heidi Garden School"}}, {"type": "node", "id": 12011222141, "lat": -33.4873409, "lon": -70.6398158, "tags": {"amenity": "school", "name": "Colegio Arzobispo Manuel Vicu\u00f1a"}}, {"type": "node", "id": 12030229717, "lat": -33.5067093, "lon": -70.6320141}, {"type": "node", "id": 12030229718, "lat": -33.5068964, "lon": -70.6319948}, {"type": "node", "id": 12048417083, "lat": -33.4808042, "lon": -70.6245046, "tags": {"amenity": "parking_entrance", "parking": "underground"}}, {"type": "node", "id": 12070314169, "lat": -33.4718175, "lon": -70.6250621, "tags": {"amenity": "parking_entrance", "parking": "underground"}}, {"type": "node", "id": 12087782658, "lat": -33.481713, "lon": -70.6224749}, {"type": "node", "id": 12087782659, "lat": -33.4820273, "lon": -70.6223917}, {"type": "node", "id": 12087782660, "lat": -33.4819121, "lon": -70.6218432}, {"type": "node", "id": 12087782661, "lat": -33.4816034, "lon": -70.6219344}, {"type": "node", "id": 12223556401, "lat": -33.478302, "lon": -70.6384817, "tags": {"amenity": "parking", "fee": "no", "parking": "surface", "surface": "ground"}}, {"type": "node", "id": 12325135626, "lat": -33.5165202, "lon": -70.6305537}, {"type": "node", "id": 12325135627, "lat": -33.5168355, "lon": -70.6336302}, {"type": "node", "id": 12325135628, "lat": -33.5171229, "lon": -70.6362963}, {"type": "node", "id": 12325135629, "lat": -33.5171274, "lon": -70.6365377}, {"type": "node", "id": 12325135630, "lat": -33.5169216, "lon": -70.6365739}, {"type": "node", "id": 12325135633, "lat": -33.5160652, "lon": -70.628357}, {"type": "node", "id": 12325135634, "lat": -33.5162675, "lon": -70.6283221}, {"type": "node", "id": 12644258222, "lat": -33.5068495, "lon": -70.6234869, "tags": {"addr:street": "Vecinal", "amenity": "taxi", "name": "Colectivos l\u00ednea 9007", "shelter": "yes"}}, {"type": "node", "id": 12644271622, "lat": -33.4985513, "lon": -70.616699, "tags": {"addr:city": "San Joaqu\u00edn", "addr:street": "Raquel", "amenity": "taxi", "name": "Colectivos l\u00ednea 9008", "shelter": "yes"}}, {"type": "node", "id": 12644291662, "lat": -33.4937228, "lon": -70.6186833, "tags": {"addr:city": "San Joaqu\u00edn", "addr:street": "San Juan", "amenity": "taxi", "name": "Colectivos l\u00edneas 9010-9011", "operator": "Empresa de transportes metro ocho S.A.", "shelter": "no"}}, {"type": "node", "id": 12644320231, "lat": -33.5116385, "lon": -70.6217361, "tags": {"addr:city": "San Joaqu\u00edn", "addr:housenumber": "211", "addr:street": "Varas Mena", "amenity": "taxi", "name": "Colectivos l\u00ednea 9003", "operator": "Empresa de transportes El Llano, Departamental S.A.", "shelter": "yes"}}, {"type": "node", "id": 12778874969, "lat": -33.4843941, "lon": -70.6215703}, {"type": "node", "id": 12778874970, "lat": -33.4844104, "lon": -70.6215628}, {"type": "node", "id": 12778874971, "lat": -33.4844251, "lon": -70.6215507}, {"type": "node", "id": 12778874972, "lat": -33.4844391, "lon": -70.6215283}, {"type": "node", "id": 12778874973, "lat": -33.4844461, "lon": -70.6215032}, {"type": "node", "id": 12778874974, "lat": -33.4843428, "lon": -70.6208829}, {"type": "node", "id": 12778874975, "lat": -33.483493, "lon": -70.6211148}, {"type": "node", "id": 12778874976, "lat": -33.4836095, "lon": -70.6217593}, {"type": "node", "id": 12778874977, "lat": -33.4843355, "lon": -70.6237884}, {"type": "node", "id": 12778874978, "lat": -33.4843224, "lon": -70.6237121}, {"type": "node", "id": 12778874979, "lat": -33.4843673, "lon": -70.6237013}, {"type": "node", "id": 12778874980, "lat": -33.4843445, "lon": -70.6235239}, {"type": "node", "id": 12778874981, "lat": -33.4840624, "lon": -70.6231625}, {"type": "node", "id": 12778874982, "lat": -33.484041, "lon": -70.6231484}, {"type": "node", "id": 12778874983, "lat": -33.4840154, "lon": -70.6231401}, {"type": "node", "id": 12778874984, "lat": -33.4839905, "lon": -70.6231401}, {"type": "node", "id": 12778874985, "lat": -33.4839518, "lon": -70.6231492}, {"type": "node", "id": 12778874986, "lat": -33.4838695, "lon": -70.6231724}, {"type": "node", "id": 12778874987, "lat": -33.4839905, "lon": -70.6238845}, {"type": "node", "id": 12880174966, "lat": -33.4791338, "lon": -70.6222298, "tags": {"addr:city": "San Joaqu\u00edn", "addr:housenumber": "3043", "addr:street": "Avenida Vicu\u00f1a Mackenna", "amenity": "restaurant", "cuisine": "sushi", "name": "Sushi Xpress", "opening_hours": "Mo-Su 12:00-22:00", "phone": "+56 990 019 898", "website": "https://www.sushiexpresssanjoaquin.cl"}}, {"type": "node", "id": 12880174967, "lat": -33.4791929, "lon": -70.622217, "tags": {"addr:city": "San Joaqu\u00edn", "addr:housenumber": "3041", "addr:street": "Avenida Vicu\u00f1a Mackenna", "amenity": "pharmacy", "healthcare": "pharmacy", "name": "Farmacia Amaya", "opening_hours": "Mo-Fr 10:00-21:00; Sa,Su,PH 11:00-20:00", "website": "https://www.instagram.com/farmacia_amaya/"}}, {"type": "node", "id": 12880174969, "lat": -33.4797732, "lon": -70.6220082}, {"type": "node", "id": 12880174970, "lat": -33.4796648, "lon": -70.6220382}, {"type": "node", "id": 12880174972, "lat": -33.4797207, "lon": -70.6220227}, {"type": "node", "id": 12880174974, "lat": -33.4814078, "lon": -70.6215972}, {"type": "node", "id": 12880174975, "lat": -33.4812798, "lon": -70.621632}, {"type": "node", "id": 12880174977, "lat": -33.4813455, "lon": -70.6216141}, {"type": "node", "id": 12892170601, "lat": -33.5056704, "lon": -70.6307364, "tags": {"amenity": "community_centre", "name": "Junta de Vecinos Gabriela Mistral"}}, {"type": "node", "id": 12892173701, "lat": -33.5064809, "lon": -70.6312302, "tags": {"amenity": "place_of_worship", "name": "Capilla Santa Rosa de Macul"}}, {"type": "node", "id": 12981457521, "lat": -33.4737999, "lon": -70.6262397, "tags": {"access": "yes", "amenity": "bicycle_parking", "bicycle_parking": "stands", "capacity": "5", "covered": "no", "fee": "no"}}, {"type": "node", "id": 12981457522, "lat": -33.4734632, "lon": -70.6259532, "tags": {"amenity": "atm", "brand": "BCI", "brand:wikidata": "Q2882083", "operator": "BCI", "operator:wikidata": "Q2882083"}}, {"type": "node", "id": 12991098345, "lat": -33.4863389, "lon": -70.6263417, "tags": {"amenity": "fast_food", "brand": "China Wok", "brand:wikidata": "Q5766542", "cuisine": "chinese", "name": "China Wok", "takeaway": "yes"}}, {"type": "node", "id": 12991098353, "lat": -33.4864782, "lon": -70.6259559, "tags": {"amenity": "atm"}}, {"type": "node", "id": 13054889251, "lat": -33.5169285, "lon": -70.6366037}, {"type": "node", "id": 13054889252, "lat": -33.5171139, "lon": -70.6365796}, {"type": "node", "id": 13063848732, "lat": -33.51357, "lon": -70.630274}, {"type": "node", "id": 13063848733, "lat": -33.5131311, "lon": -70.6304102}, {"type": "node", "id": 13063848734, "lat": -33.5131803, "lon": -70.6309184}, {"type": "node", "id": 13069552777, "lat": -33.495213, "lon": -70.639362}, {"type": "way", "id": 138284878, "nodes": [1516092440, 3323737246, 1516092444, 1516092412, 1516092440], "tags": {"addr:housenumber": "5770", "addr:street": "Venozzo Gozzolli", "amenity": "school", "contact:email": "cemsanjoaquin@gmail.com", "name": "Centro Educacional Municipal San Joaqu\u00edn", "operator": "1", "school:type": "10;110;310;510;610", "source": "Gobierno Regional Metropolitano de Santiago (http://www.gobiernosantiago.cl/)"}}, {"type": "way", "id": 138284881, "nodes": [1516092416, 11176946167, 11176946168, 1516092431, 11176946166, 1516092464, 1516092465, 1516092416], "tags": {"addr:housenumber": "274", "addr:street": "Pasaje Co\u00f1imo", "amenity": "social_centre", "name": "Centro Cultural de San Joaqu\u00edn"}}, {"type": "way", "id": 138284883, "nodes": [1516092421, 1648066534, 1516092458, 1516092445, 1516092436, 1516092421], "tags": {"addr:city": "San Joaqu\u00edn", "addr:housenumber": "5369", "addr:street": "Pasaje Huara", "amenity": "school", "email": "ecamilohenriquez@gmail.com", "name": "Escuela B\u00e1sica Fray Camilo Henr\u00edquez", "operator": "1", "school:type": "10;110", "source": "Gobierno Regional Metropolitano de Santiago (http://www.gobiernosantiago.cl/)"}}, {"type": "way", "id": 138284884, "nodes": [1516092421, 1648066533, 1516092422, 1516092437, 1516092436, 1516092421], "tags": {"addr:city": "San Joaqu\u00edn", "addr:country": "CL", "addr:street": "Gustavo Campana Gandarillas", "amenity": "doctors", "healthcare": "doctor", "name": "CESFAM/SAPU Santa Teresa de los Andes"}}, {"type": "way", "id": 138284887, "nodes": [1516092462, 4458102329, 4458102328, 1516092419, 1516092433, 4458102327, 4458102326, 1516092455, 1516092462], "tags": {"amenity": "place_of_worship", "building": "yes", "denomination": "mormon", "name": "La Iglesia de Jesucristo de los Santos de los \u00daltimos D\u00edas", "religion": "christian", "source": "Reconocimiento cortogr\u00e1fico de campo 2016 por KG"}}, {"type": "way", "id": 138284888, "nodes": [1516092442, 1516092454, 1516092451, 1516092438, 1516092442], "tags": {"amenity": "parking"}}, {"type": "way", "id": 138284928, "nodes": [1516095759, 8022248285, 1516095786, 1516095732, 1516095773, 1516095759], "tags": {"addr:city": "San Joaqu\u00edn", "addr:housenumber": "401", "addr:street": "Ureta Cox", "amenity": "school", "contact:email": "cemhaa@yahoo.com", "name": "Centro Educional Horacio Aravena Andaur", "operator": "1", "school:type": "10;110;160;361;410;610", "source": "Gobierno Regional Metropolitano de Santiago (http://www.gobiernosantiago.cl/)"}}, {"type": "way", "id": 138284932, "nodes": [1516095781, 1516095735, 1516095786, 8022248285, 1516095781], "tags": {"amenity": "place_of_worship", "name": "Parroquia Santa Cristina", "religion": "christian"}}, {"type": "way", "id": 138285225, "nodes": [2448321209, 1516121128, 1516121166, 1516121130, 5852243205, 2448321209], "tags": {"addr:housenumber": "4917", "addr:street": "Avenida Vicu\u00f1a Mackenna", "amenity": "college", "name": "DUOC UC San Joaqu\u00edn", "wheelchair": "yes"}}, {"type": "way", "id": 138285226, "nodes": [11584856056, 11584856059, 11584856062, 1516121147, 11584856064, 1795199957, 1516121158, 11584856060, 11584856061, 11584856057, 11584856066, 11584856058, 3374930395, 3374930396, 5207003568, 5207003596, 5207003592, 5207003564, 5207003597, 5207003553, 3682866528, 3682866530, 11584856056], "tags": {"addr:city": "San Joaqu\u00edn", "addr:housename": "CPF Santiago", "addr:housenumber": "20", "addr:street": "Capit\u00e1n Prat", "amenity": "prison", "designation": "Gendarmeria", "name": "Centro Penitenciario Femenino Santiago"}}, {"type": "way", "id": 138285470, "nodes": [1516713669, 1516713672, 1516135414, 1516135407, 1516135433, 1516713657, 1516713669], "tags": {"addr:city": "San Joaquin", "addr:housenumber": "282", "addr:street": "Avenida Alcalde Carlos Valdovinos", "amenity": "police", "name": "50 Comisar\u00eda San Joaqu\u00edn", "operator": "Carabineros de Chile", "operator:wikidata": "Q2317752", "source": "Carabineros"}}, {"type": "way", "id": 138285471, "nodes": [1516135424, 1516135401, 5609897179, 1516135400, 1516135422, 1648002616, 1516135402, 1516135424], "tags": {"addr:city": "San Joaqu\u00edn", "addr:housenumber": "3261", "addr:street": "Sierra Bella", "amenity": "school", "contact:email": "sierrabella@hma.cl", "name": "Escuela Particular Laura Vicu\u00f1a", "operator": "3", "school:type": "10;110", "source": "Gobierno Regional Metropolitano de Santiago (http://www.gobiernosantiago.cl/)"}}, {"type": "way", "id": 138285473, "nodes": [1516135398, 1516135418, 5609760375, 1516135425, 1516135431, 5609760374, 1516135398], "tags": {"addr:city": "San Joaqu\u00edn", "addr:housenumber": "401", "addr:street": "Alcalde Pedro Alarc\u00f3n", "amenity": "school", "contact:email": "esusantidadjuanxxiii@gmail.com", "contact:phone": "+56 2 5521399", "name": "Escuela B\u00e1sica y Especial Su Santidad Juan XXIII", "operator": "1", "school:type": "10;110;214", "source": "Gobierno Regional Metropolitano de Santiago (http://www.gobiernosantiago.cl/)"}}, {"type": "way", "id": 138324500, "nodes": [1516570106, 1516570107, 1516570124, 1516570101, 1516570106], "tags": {"addr:housenumber": "92;170", "addr:street": "Avenida Departamental", "amenity": "school", "name": "Escuela Basica Haydn", "operator": "3", "school:type": "10;110", "source": "Gobierno Regional Metropolitano de Santiago (http://www.gobiernosantiago.cl/)"}}, {"type": "way", "id": 138325555, "nodes": [1516592953, 1516592970, 1516592979, 1516592904, 1516592953], "tags": {"amenity": "place_of_worship", "name": "Iglesia San Sebasti\u00e1n", "religion": "christian"}}, {"type": "way", "id": 138326092, "nodes": [1516609967, 1516610013, 1516610010, 1516610015, 1516609967], "tags": {"addr:housenumber": "440", "addr:street": "Avenida Departamental", "amenity": "school", "contact:email": "avalencia@infocap.cl", "name": "Colegio Infocap", "operator": "3", "school:type": "160;164;361", "source": "Gobierno Regional Metropolitano de Santiago (http://www.gobiernosantiago.cl/)", "wikidata": "Q5915763", "wikipedia": "es:Infocap"}}, {"type": "way", "id": 138326093, "nodes": [1516609965, 1516609971, 12030229717, 12030229718, 1516610017, 1516610004, 6656006073, 1516609965], "tags": {"addr:city": "San Joaqu\u00edn", "addr:housenumber": "285", "addr:street": "Avenida Departamental", "amenity": "school", "email": "aramirez@corporacionsofofa.cl", "name": "Liceo Industrial de San Miguel Agust\u00edn Edwards Ross", "operator": "5", "school:type": "510", "source": "Gobierno Regional Metropolitano de Santiago (http://www.gobiernosantiago.cl/)"}}, {"type": "way", "id": 151971742, "nodes": [1648066553, 1648066550, 1648066543, 1648066554, 1648066553], "tags": {"amenity": "parking"}}, {"type": "way", "id": 151971744, "nodes": [1648066574, 1648066532, 1648066571, 1648066542, 1648066574], "tags": {"amenity": "parking"}}, {"type": "way", "id": 151971750, "nodes": [1648066561, 1648066551, 1648066533, 1516092421, 1648066534, 1648066558, 1648066559, 1648066561], "tags": {"amenity": "parking"}}, {"type": "way", "id": 152158963, "nodes": [1516092453, 1516092423, 10080789795, 10080789794, 1649806179, 1649806170, 1649806167, 1516092453], "tags": {"amenity": "place_of_worship", "religion": "christian"}}, {"type": "way", "id": 157450164, "nodes": [1696660379, 1696660377, 9453295843, 9453295845, 11989000928, 1696660367, 6247960376, 1696660381, 1700234445, 1696660374, 1696660372, 1696660373, 9388968296, 1696660379], "tags": {"addr:city": "San Joaqu\u00edn", "addr:housenumber": "3939", "addr:street": "Avenida Vicu\u00f1a Mackenna", "amenity": "university", "email": "info.santiago@usm.cl", "internet_access": "yes", "internet_access:fee": "no", "name": "Universidad T\u00e9cnica Federico Santa Mar\u00eda Campus San Joaqu\u00edn", "operator": "UTFSM", "operator:type": "university", "phone": "+56224326600", "website": "www.santiago.usm.cl"}}, {"type": "way", "id": 157967280, "nodes": [1701959939, 2274706451, 1701959921, 3855002091, 1701959939], "tags": {"access": "private", "amenity": "parking", "name": "Estacionamiento Funcionarios", "parking": "surface"}}, {"type": "way", "id": 168229221, "nodes": [1795198634, 1795198670, 1795198675, 1795198676, 1795198634], "tags": {"amenity": "place_of_worship", "religion": "christian"}}, {"type": "way", "id": 297679871, "nodes": [3015643013, 3015643014, 9387178785, 9387178786, 1686120812, 1686120811, 9387178796, 9387178802, 9387178799, 3015643020, 3015643013], "tags": {"access": "private", "amenity": "parking", "fee": "no", "name": "Estacionamiento Alumnos", "parking": "surface", "supervised": "yes"}}, {"type": "way", "id": 442140503, "nodes": [4398356414, 4398356415, 4398356366, 4398356416, 7823067329, 4398356417, 4398356418, 4398356419, 7823067330, 7823116488, 7823122308, 4398356560, 7823116487, 4398356414], "tags": {"amenity": "parking"}}, {"type": "way", "id": 442140530, "nodes": [4398356543, 4398356544, 4398356545, 4398356546, 4398356543], "tags": {"amenity": "parking"}}, {"type": "way", "id": 442140531, "nodes": [4398356547, 4398356548, 4398356549, 4398356550, 4398356551, 4398356547], "tags": {"amenity": "parking"}}, {"type": "way", "id": 446321780, "nodes": [4436139061, 4436139062, 4436139063, 4436139064, 4436139061], "tags": {"addr:street": "Avenida Vicu\u00f1a Mackenna", "amenity": "restaurant", "building": "yes", "name": "Restaurant El Fito", "source": "Reconocimiento cortogr\u00e1fico de campo 2016 por KG"}}, {"type": "way", "id": 446321781, "nodes": [9150058064, 9150058065, 4436139065, 4436139066, 9150058064], "tags": {"addr:street": "Avenida Vicu\u00f1a Mackenna", "amenity": "bar", "building": "yes", "name": "La Bicicleta Resto-Bar", "source": "Reconocimiento cortogr\u00e1fico de campo 2016 por KG"}}, {"type": "way", "id": 447271169, "nodes": [4444388160, 4444388161, 4444388162, 4444388163, 4444388160], "tags": {"addr:street": "Avenida Las Industrias", "amenity": "place_of_worship", "building": "yes", "name": "Iglesia Bautista Emanuel", "religion": "christian", "source": "Reconocimiento cortogr\u00e1fico de campo 2016 por KG"}}, {"type": "way", "id": 447272605, "nodes": [4444404811, 4444404812, 4444404813, 4444404814, 4444404811], "tags": {"addr:city": "San Joaqu\u00edn", "addr:housenumber": "3195", "addr:street": "Avenida Vicu\u00f1a Mackenna", "amenity": "bank", "brand": "Banco Santander", "brand:wikidata": "Q6496310", "brand:wikipedia": "en:Santander Bank", "building": "yes", "building:levels": "2", "name": "Banco Santander", "name:es": "Santander R\u00edo", "official_name": "Santander Group", "source": "Reconocimiento cortogr\u00e1fico de campo 2016 por KG", "website": "https://banco.santander.cl/"}}, {"type": "way", "id": 447272606, "nodes": [4444404815, 4444404816, 4444404817, 4444404818, 4444404815], "tags": {"addr:street": "Avenida Vicu\u00f1a Mackenna", "amenity": "bank", "brand": "Ita\u00fa Corpbanca", "brand:wikidata": "Q2423252", "building": "yes", "name": "Ita\u00fa", "source": "Reconocimiento cortogr\u00e1fico de campo 2016 por KG"}}, {"type": "way", "id": 447272689, "nodes": [4444406108, 11903000494, 4444406109, 11903065595, 4444406110, 4444406111, 11903065596, 4444406108], "tags": {"addr:street": "Avenida Las Industrias", "amenity": "fuel", "building": "roof", "layer": "1", "name": "Shell", "source": "Reconocimiento cortogr\u00e1fico de campo 2016 por KG"}}, {"type": "way", "id": 447274229, "nodes": [4444417908, 4444417909, 4444417910, 4444417911, 4444417912, 4444417908], "tags": {"addr:street": "Avenida Las Industrias", "amenity": "place_of_worship", "building": "yes", "name": "C.C.RE.E.", "religion": "christian", "source": "Reconocimiento cortogr\u00e1fico de campo 2016 por KG"}}, {"type": "way", "id": 447281230, "nodes": [4444472443, 4444472447, 4444472444, 4444472445, 4444472446, 4444472443], "tags": {"addr:street": "Avenida Vicu\u00f1a Mackenna", "amenity": "bank", "brand": "Banco Santander", "brand:wikidata": "Q6496310", "brand:wikipedia": "en:Santander Bank", "building": "yes", "name": "Banco Santander", "official_name": "Santander Group", "source": "Reconocimiento cortogr\u00e1fico de campo 2016 por KG", "website": "https://banco.santander.cl/"}}, {"type": "way", "id": 447281232, "nodes": [4444472450, 4444472451, 4444472452, 4444472453, 4444472450], "tags": {"addr:city": "San Joaqu\u00edn", "addr:housenumber": "3095", "addr:street": "Avenida Vicu\u00f1a Mackenna", "amenity": "restaurant", "building": "yes", "cuisine": "chinese", "name": "Restaurant Mei Hua", "opening_hours": "11:30-24:00", "phone": "+56 225 531 956", "source": "Reconocimiento cortogr\u00e1fico de campo 2016 por KG", "website": "https://meihua.cl"}}, {"type": "way", "id": 448183548, "nodes": [4452188426, 4452188427, 4452188428, 4452188429, 4452188426], "tags": {"addr:country": "CL", "amenity": "clinic", "building": "yes", "name": "Centro de Salud Doctor Arturo Baeza Goni", "source": "Reconocimiento cartogr\u00e1fico 2016 por KG"}}, {"type": "way", "id": 448183549, "nodes": [4452188430, 4452188431, 4452188432, 4452188433, 4452188430], "tags": {"amenity": "place_of_worship", "building": "yes", "name": "Iglesia de Dios Voz en el Desierto", "religion": "christian", "source": "Reconocimiento cartogr\u00e1fico 2016 por KG"}}, {"type": "way", "id": 448183550, "nodes": [4452188434, 4452188435, 4452188436, 4452188437, 4452188438, 4452188439, 4452188434], "tags": {"addr:city": "San Joaquin", "addr:housenumber": "352", "addr:street": "Los Copihues", "amenity": "kindergarten", "building": "yes", "name": "Los Copihues", "source": "Reconocimiento cartogr\u00e1fico por KG 2016"}}, {"type": "way", "id": 448213646, "nodes": [4452484975, 4452484976, 4452484977, 4452484978, 4452484979, 4452484980, 4452484981, 4452484982, 4452484983, 4452484984, 4452484975], "tags": {"amenity": "kindergarten", "building": "yes", "source": "Reconocimiento cartogr\u00e1fico 2016 por KG"}}, {"type": "way", "id": 448220380, "nodes": [4452547297, 4452547298, 4452547299, 4452547300, 4452547301, 4452547297], "tags": {"addr:city": "San Joaqu\u00edn", "addr:housenumber": "354", "addr:street": "Alcalde Pedro Alarc\u00f3n", "amenity": "bank", "brand": "Banco Estado", "brand:wikidata": "Q5718188", "building": "yes", "name": "BancoEstado Express", "official_name": "Banco del Estado de Chile", "source": "Reconocimiento cartogr\u00e1fico 2016 por KG"}}, {"type": "way", "id": 448222537, "nodes": [4452571977, 4452571978, 4452571979, 4452571980, 4452571977], "tags": {"amenity": "fire_station", "building": "yes", "name": "Quinta Compa\u00f1\u00eda del Cuerpo de Bomberos Metropolitano Sur", "source": "Reconocimiento cartogr\u00e1fico por KG 2016"}}, {"type": "way", "id": 448333362, "nodes": [4453556960, 4453556961, 4453556962, 4453556963, 4453556964, 9448839025, 4453556960], "tags": {"amenity": "restaurant", "building": "yes", "name": "Bar Restaurant Vicho's", "source": "Reconocimiento cartogr\u00e1fico 2016 por KG"}}, {"type": "way", "id": 448354865, "nodes": [4453748873, 4453748874, 4453748875, 4453748876, 4453748877, 4453748873], "tags": {"amenity": "restaurant", "building": "yes", "name": "Restaurant Comida China Cantonesa", "source": "Reconocimiento cartogr\u00e1fico por KG 2016"}}, {"type": "way", "id": 448361797, "nodes": [4453815154, 4453815155, 4453815156, 4453815157, 9448661690, 4453815154], "tags": {"amenity": "place_of_worship", "building": "yes", "name": "Iglesia Adventista", "religion": "christian", "source": "Reconocimiento cartogr\u00e1fico 2016 por KG"}}, {"type": "way", "id": 448714337, "nodes": [4455775715, 4456978502, 4456978503, 4455775716, 4455775715], "tags": {"addr:street": "Avenida Presidente Salvador Allende Gossens", "amenity": "restaurant", "building": "yes", "cuisine": "chinese", "name": "Comida China", "source": "KG Ground Survey 2016"}}, {"type": "way", "id": 448834470, "nodes": [4458102321, 11176653287, 11176653288, 4458102325, 4458102322, 4458102323, 4458102324, 4458102321], "tags": {"addr:city": "San Joaqu\u00edn", "addr:housenumber": "5760", "addr:street": "Avenida Las Industrias", "amenity": "fire_station", "building": "yes", "name": "D\u00e9cima Compa\u00f1\u00eda del Cuerpo de Bomberos Metropolitano Sur", "source": "Reconocimiento cortogr\u00e1fico de campo 2016 por KG"}}, {"type": "way", "id": 448842537, "nodes": [4458174346, 4458174347, 4458174348, 4458174349, 4458174346], "tags": {"addr:street": "Avenida Departamental", "amenity": "veterinary", "building": "yes", "name": "Santa Teresa", "source": "Reconocimiento cortogr\u00e1fico de campo 2016 por KG"}}, {"type": "way", "id": 448842542, "nodes": [4458174365, 4458174366, 4458174367, 4458174368, 4458174365], "tags": {"addr:street": "Avenida Departamental", "amenity": "fast_food", "building": "yes", "name": "La Hora del Taco", "source": "Reconocimiento cortogr\u00e1fico de campo 2016 por KG"}}, {"type": "way", "id": 448845247, "nodes": [4458192845, 4458192846, 4458192847, 4458192848, 4458192845], "tags": {"addr:street": "Avenida Vicu\u00f1a Mackenna Poniente", "amenity": "fuel", "building": "roof", "name": "Terpel", "source": "Reconocimiento cortogr\u00e1fico de campo 2016 por KG"}}, {"type": "way", "id": 448867448, "nodes": [4458398182, 4458398183, 4458398184, 4458398185, 4458398182], "tags": {"addr:street": "Berlioz", "amenity": "car_wash", "building": "yes", "name": "Lavado Autos", "source": "Reconocimiento cortogr\u00e1fico de campo 2016 por KG"}}, {"type": "way", "id": 448868789, "nodes": [4458414083, 4458414084, 4458414085, 4458414086, 4458414087, 4458414083], "tags": {"addr:street": "Juan Planas", "amenity": "restaurant", "building": "yes", "name": "Constituci\u00f3n", "source": "Reconocimiento cortogr\u00e1fico de campo 2016 por KG"}}, {"type": "way", "id": 448871525, "nodes": [4458441089, 4458441092, 4458441095, 4458441096, 4458441089], "tags": {"addr:street": "Avenida Santa Rosa", "amenity": "veterinary", "building": "yes", "name": "Clinica Veterinaria", "source": "Reconocimiento cortogr\u00e1fico de campo 2016 por KG"}}, {"type": "way", "id": 448874374, "nodes": [4458467334, 4458467335, 4458467336, 4458467337, 4458467334], "tags": {"addr:street": "Pasaje Ganges", "amenity": "place_of_worship", "building": "yes", "name": "Iglesia Evang\u00e9lica Pentecostal Nueva Jerusal\u00e9n", "religion": "christian", "source": "Reconocimiento cortogr\u00e1fico de campo 2016 por KG"}}, {"type": "way", "id": 449235596, "nodes": [4462066451, 4462066452, 4462066453, 4462066454, 4462066455, 4462066456, 4462066457, 4462066458, 4462066451], "tags": {"addr:street": "Avenida Presidente Salvador Allende Gossens", "amenity": "place_of_worship", "building": "yes", "name": "Iglesia del Evangelio Cuadrangular", "religion": "christian", "source": "Reconocimiento cartogr\u00e1fico por KG 2016"}}, {"type": "way", "id": 449247233, "nodes": [4462184252, 4462184253, 4462184254, 4462184255, 4462184252], "tags": {"addr:street": "Avenida Presidente Salvador Allende Gossens", "amenity": "pub", "building": "yes", "name": "Sandy Schop", "source": "Reconocimiento cartogr\u00e1fico por KG 2016"}}, {"type": "way", "id": 449247234, "nodes": [4462184256, 4462184257, 4462184258, 4462184259, 4462184256], "tags": {"addr:street": "Avenida Presidente Salvador Allende Gossens", "amenity": "veterinary", "building": "yes", "name": "Veterinar\u00eda Salesianos", "source": "Reconocimiento cartogr\u00e1fico por KG 2016"}}, {"type": "way", "id": 450673218, "nodes": [4475938189, 4475938190, 4475938191, 4475938192, 4475938189], "tags": {"addr:city": "San Joaqu\u00edn", "addr:housenumber": "5656", "addr:street": "Benozzo Gozzoli", "amenity": "kindergarten", "name": "G\u00e9nesis", "source": "Reconocimiento cartogr\u00e1fico 2016 por KG."}}, {"type": "way", "id": 450673220, "nodes": [4475938198, 4475938199, 4475938200, 4475938201, 4475938198], "tags": {"addr:street": "Benozzo Gozzoli", "amenity": "fast_food", "building": "yes", "name": "Tio Cucho", "source": "Reconocimiento cortogr\u00e1fico de campo 2016 por KG"}}, {"type": "way", "id": 450674163, "nodes": [4475947585, 4475947586, 4475947587, 4475947588, 4475947589, 4475947585], "tags": {"addr:street": "Juan Rivadeneira", "amenity": "restaurant", "building": "yes", "name": "Long An", "source": "Reconocimiento cortogr\u00e1fico de campo 2016 por KG"}}, {"type": "way", "id": 450674166, "nodes": [4475947599, 4475947600, 4475947601, 4475947602, 4475947599], "tags": {"addr:city": "San Joaqu\u00edn", "addr:housenumber": "411", "addr:street": "Pasaje Francisco De Villa Espesa", "amenity": "school", "contact:email": "evictordomingosilva@gmail.com", "contact:phone": "+56 2 5521878", "name": "Escuela Poeta Victor Domingo Silva", "operator": "1", "school:type": "10;110;214", "source": "Reconocimiento cartogr\u00e1fico 2016 por KG."}}, {"type": "way", "id": 450674167, "nodes": [4475947603, 4475947604, 4475947605, 4475947606, 4475947607, 4475947603], "tags": {"addr:street": "Pir\u00e1mide", "amenity": "place_of_worship", "building": "yes", "name": "Iglesia Evang\u00e9lica Bautista Cana\u00e1n", "religion": "christian", "source": "Reconocimiento cortogr\u00e1fico de campo 2016 por KG"}}, {"type": "way", "id": 450676037, "nodes": [4475965077, 4475965078, 4475965079, 4475965080, 4475965077], "tags": {"addr:street": "Mart\u00edn Henr\u00edquez", "amenity": "place_of_worship", "building": "yes", "name": "Pentecostal Puerta del Cielo", "religion": "christian", "source": "Reconocimiento cortogr\u00e1fico de campo 2016 por KG"}}, {"type": "way", "id": 450676039, "nodes": [4475965086, 4475965087, 4475965088, 4475966089, 4475966090, 4475965086], "tags": {"addr:city": "San Joaqu\u00edn", "addr:street": "Juan Griego", "amenity": "pharmacy", "building": "yes", "healthcare": "pharmacy", "name": "Farmacia San Luis", "source": "Reconocimiento cortogr\u00e1fico de campo 2016 por KG"}}, {"type": "way", "id": 498690462, "nodes": [4900627643, 4900627644, 4900627645, 4900627646, 4900627647, 4900627648, 4900627643], "tags": {"amenity": "parking"}}, {"type": "way", "id": 537801070, "nodes": [3682866530, 3682866528, 5207003553, 5207003597, 3374930398, 3682866530], "tags": {"addr:city": "San Joaquin", "addr:housenumber": "5065", "addr:street": "Avenida Vicu\u00f1a Mackenna", "amenity": "police", "government": "police", "landuse": "military", "name": "Direcci\u00f3n Regional Gendarmer\u00eda Metropolitana"}}, {"type": "way", "id": 540782498, "nodes": [5231005494, 5231005495, 5231005496, 5231005497, 5231005494], "tags": {"addr:street": "Manuel P\u00e9rez", "amenity": "place_of_worship", "building": "yes", "denomination": "methodist", "religion": "christian"}}, {"type": "way", "id": 601883525, "nodes": [5719031632, 5719031633, 5719031634, 5719031635, 5719031632], "tags": {"addr:city": "San Joaqu\u00edn", "addr:street": "Avenida Las Industrias", "amenity": "fast_food", "building": "house", "cuisine": "burger", "name": "Donde Luchito"}}, {"type": "way", "id": 602319737, "nodes": [5721633155, 5721633156, 5721633157, 5721633158, 5721633159, 5721633160, 5721633155], "tags": {"amenity": "school", "name": "Colegio Esp\u00edritu Santo Del Verbo Divino"}}, {"type": "way", "id": 619276951, "nodes": [1516121128, 2437239577, 2437239579, 2437239572, 5852243205, 2448321209, 1516121128], "tags": {"addr:housenumber": "4835", "addr:street": "Avenida Vicu\u00f1a Mackenna", "amenity": "college", "name": "IP Santo Tom\u00e1s San Joaqu\u00edn"}}, {"type": "way", "id": 646144352, "nodes": [6071990930, 6071990931, 6071990932, 6071990933, 6071990930], "tags": {"addr:city": "San Joaqu\u00edn", "addr:housenumber": "3219", "addr:street": "Avenida Vicu\u00f1a Mackenna", "amenity": "bank", "brand": "Banco de Chile", "brand:wikidata": "Q2882085", "building": "yes", "name": "Banco de Chile", "website": "https://www.bancochile.cl"}}, {"type": "way", "id": 648582598, "nodes": [6088960061, 6088960062, 6088960063, 6088960064, 6088960061], "tags": {"addr:city": "San Joaqu\u00edn", "addr:housenumber": "3050", "addr:street": "Avenida Santa Rosa", "amenity": "school", "contact:email": "sjoaqb98@gmail.com", "name": "Liceo Polit\u00e9cnico de San Joaquin", "operator": "5", "school:type": "410;510", "source": "Gobierno Regional Metropolitano de Santiago (http://www.gobiernosantiago.cl/)"}}, {"type": "way", "id": 648582645, "nodes": [6088962515, 6088962516, 6088962517, 6088962518, 6088962519, 6088962520, 6088962521, 6088962522, 6088962515], "tags": {"amenity": "fuel", "brand": "Copec", "brand:wikidata": "Q1130956", "building": "no", "name": "Copec"}}, {"type": "way", "id": 708329374, "nodes": [6655997817, 6655997818, 6655997819, 6655997820, 6655997821, 6655997822, 6655997823, 6655997824, 6655997825, 6655997826, 6655997827, 6655997828, 6655997829, 6655997817], "tags": {"addr:city": "San Joaqu\u00edn", "addr:housenumber": "2606", "addr:street": "Avenida Santa Rosa", "amenity": "townhall", "building": "yes", "name": "Ilustre Municipalidad de San Joaqu\u00edn"}}, {"type": "way", "id": 738271325, "nodes": [6912918732, 11584718462, 11584718463, 11584718464, 11584718465, 11584718466, 6912918734, 6912918735, 6912918736, 6912918737, 6912918732], "tags": {"addr:street": "Canad\u00e1", "amenity": "prison", "name": "Centro de Internaci\u00f3n Provisoria San Joaqu\u00edn"}}, {"type": "way", "id": 812751256, "nodes": [7591411363, 7591411362, 7591411361, 7591411360, 7591411363], "tags": {"amenity": "parking"}}, {"type": "way", "id": 860696266, "nodes": [8022204288, 13069552777, 8022204287, 4455782289, 1516103156, 8022204288], "tags": {"addr:housenumber": "4180", "addr:street": "Avenida Santa Rosa", "amenity": "fuel", "brand": "Copec", "brand:wikidata": "Q1130956", "name": "Copec"}}, {"type": "way", "id": 1024320655, "nodes": [9445499741, 9445499742, 9445499743, 9445499744, 9445499741], "tags": {"addr:city": "San Joaqu\u00edn", "addr:housenumber": "3207", "addr:street": "Avenida Vicu\u00f1a Mackenna", "amenity": "fast_food", "building": "house", "cuisine": "sandwich", "drive_through": "no", "name": "Fuente Mardoqueo", "opening_hours": "12:00-23:00", "phone": "+56 945 352 156", "website": "https://fuentemardoqueo.cl"}}, {"type": "way", "id": 1024320684, "nodes": [6071990940, 9445501876, 9445501877, 9445501878, 6071990940], "tags": {"addr:city": "San Joaqu\u00edn", "addr:housenumber": "3101", "addr:street": "Avenida Vicu\u00f1a Mackenna", "amenity": "place_of_worship", "building": "house", "email": "vmfsantiagochile@gmail.com", "name": "Iglesia Visi\u00f3n Mundial para la Familia", "religion": "christian"}}, {"type": "way", "id": 1024361673, "nodes": [9445852253, 9445852254, 9445852255, 9445852256, 9445852257, 9445852253], "tags": {"amenity": "bank", "building": "yes"}}, {"type": "way", "id": 1024377452, "nodes": [9445986961, 9445986966, 9445986962, 9445986963, 9445986964, 9445986961], "tags": {"amenity": "place_of_worship", "building": "yes", "denomination": "roman_catholic", "name": "Parroquia San Nicol\u00e1s de Tolentino", "religion": "christian"}}, {"type": "way", "id": 1024686561, "nodes": [9448661695, 9448661693, 9448661694, 9448661696, 9448661697, 9448661698, 9448661699, 9448661695], "tags": {"amenity": "restaurant", "building": "yes"}}, {"type": "way", "id": 1024686614, "nodes": [9448666233, 9448666235, 9448666236, 9448666234, 9448666233], "tags": {"amenity": "restaurant", "building": "yes"}}, {"type": "way", "id": 1024686672, "nodes": [9448666431, 9448666432, 9448666436, 9448666433, 9448666454, 9448666446, 9448666431], "tags": {"amenity": "place_of_worship", "building": "yes", "religion": "christian"}}, {"type": "way", "id": 1024709273, "nodes": [9448838998, 9448838999, 9448839000, 9448839001, 9448839004, 9448838997, 9448838998], "tags": {"amenity": "restaurant", "building": "yes"}}, {"type": "way", "id": 1024712552, "nodes": [9448782794, 9448782795, 9448782796, 9448782792, 9448782791, 9448782794], "tags": {"amenity": "restaurant", "building": "yes"}}, {"type": "way", "id": 1024721893, "nodes": [9448935091, 9448935092, 9448935093, 9448935094, 9448935099, 9448935095, 9448935132, 9448935091], "tags": {"amenity": "restaurant", "building": "yes"}}, {"type": "way", "id": 1025623250, "nodes": [9456231881, 9456231882, 9456231883, 9456231884, 9456231885, 9456231886, 9456231887, 9456231888, 9456231889, 9456231890, 9456231881], "tags": {"amenity": "social_centre", "building": "yes"}}, {"type": "way", "id": 1100958331, "nodes": [10075990537, 10075990538, 10075990539, 10075990540, 10075990541, 10075990537], "tags": {"addr:city": "San Joaqu\u00edn", "addr:housenumber": "4685", "addr:street": "Avenida Vicu\u00f1a Mackenna", "amenity": "college", "internet_access": "yes", "internet_access:fee": "customers", "name": "AIEP San Joaqu\u00edn", "operator": "AIEP", "operator:type": "private", "website": "https://www.aiep.cl/sede/san-joaquin/8/"}}, {"type": "way", "id": 1101592917, "nodes": [10080854692, 10080854693, 10080854694, 10080854695, 10080854692], "tags": {"amenity": "community_centre", "building": "yes"}}, {"type": "way", "id": 1101592918, "nodes": [10080854696, 10080854697, 10080854698, 10080854699, 10080854696], "tags": {"addr:city": "San Joaqu\u00edn", "addr:street": "Vecinal", "amenity": "community_centre", "building": "yes"}}, {"type": "way", "id": 1101593815, "nodes": [10080870660, 10080870661, 10080870662, 10080870663, 10080870664, 10080870665, 10080870666, 10080870667, 10080870660], "tags": {"addr:city": "San Joaqu\u00edn", "addr:housenumber": "199", "addr:street": "Varas Mena", "amenity": "community_centre", "building": "yes", "name": "Asociaci\u00f3n de F\u00fatbol San Joaqu\u00edn Oriente", "operator": "Asociaci\u00f3n de F\u00fatbol San Joaqu\u00edn Oriente", "operator:type": "private"}}, {"type": "way", "id": 1124340787, "nodes": [10281639501, 10281639498, 10281639499, 10281639500, 10281639501], "tags": {"addr:country": "CL", "alt_name": "Centro Comunitario de Salud Familiar", "amenity": "doctors", "healthcare": "hospital", "name": "CECOSF Co\u00f1imo", "official_name": "Centro Comunitario de Salud Familiar"}}, {"type": "way", "id": 1130874585, "nodes": [10539080271, 10539080270, 10539080269, 9002367670, 10539080271], "tags": {"addr:city": "San Joaqu\u00edn", "addr:street": "Avenida Santa Rosa", "amenity": "fuel", "name": "Aramco", "source": "Reconocimiento cartogr\u00e1fico por KG 2016"}}, {"type": "way", "id": 1149740656, "nodes": [1516087260, 10695644399, 10695614877, 10695614876, 10695614872, 6093534005, 6093533992, 10695614873, 10695614874, 10695614875, 1516087286, 4944444119, 1516087260], "tags": {"addr:housenumber": "390", "addr:street": "Avenida Departamental", "amenity": "vehicle_inspection"}}, {"type": "way", "id": 1177965196, "nodes": [906425429, 10942893210, 10942893211, 10942893212, 10942893213, 10942893214, 906425429], "tags": {"addr:city": "San Joaqu\u00edn", "addr:housenumber": "528", "addr:street": "Avenida Silva", "amenity": "school", "contact:email": "liceo460@gmail.com", "name": "Centro Educacional Provincia De \u00d1Uble", "operator": "1", "school:type": "10;110;214;361", "source": "Gobierno Regional Metropolitano de Santiago (http://www.gobiernosantiago.cl/)"}}, {"type": "way", "id": 1190495781, "nodes": [3671147099, 11053909267, 11053909268, 11053909269, 11053909270, 11053909271, 3671147099], "tags": {"addr:city": "San Joaquin", "addr:housenumber": "3461", "addr:street": "San Gregorio", "amenity": "kindergarten", "name": "Jard\u00edn Infantil Mariano Puga"}}, {"type": "way", "id": 1190495782, "nodes": [906421729, 11053909272, 11053909273, 11053909274, 906421729], "tags": {"addr:city": "San Jaoqu\u00edn", "addr:housenumber": "3464", "addr:street": "Francisca de Rimini", "amenity": "school", "contact:email": "eciudaddefrankfort@gmail.com", "contact:phone": "+56 2 5525685", "name": "Colegio Ciudad De Frankfort", "operator": "1", "school:type": "10;110;214", "source": "Gobierno Regional Metropolitano de Santiago (http://www.gobiernosantiago.cl/)"}}, {"type": "way", "id": 1190495786, "nodes": [3671179909, 11053909283, 11053909284, 11053909285, 3671179909], "tags": {"addr:city": "San Joaquin", "addr:housenumber": "3975", "addr:street": "Los Copihues", "amenity": "kindergarten", "name": "Jard\u00edn Infantil Los Alerces"}}, {"type": "way", "id": 1190495787, "nodes": [1648072137, 906421728, 11053909286, 11053909287, 1648072137], "tags": {"addr:city": "San Joaqu\u00edn", "addr:housenumber": "175", "addr:street": "Comercio", "amenity": "school", "contact:email": "liceosanjoaquin@gmail.com", "name": "Liceo Municipal San Joaquin", "operator": "1", "school:type": "10;110;214;361", "source": "Gobierno Regional Metropolitano de Santiago (http://www.gobiernosantiago.cl/)"}}, {"type": "way", "id": 1208177427, "nodes": [11194963792, 11194963793, 11194963794, 11194963795, 11194963792], "tags": {"amenity": "parking"}}, {"type": "way", "id": 1208177433, "nodes": [11194963834, 11194963835, 11194963836, 11194963839, 11194963841, 11194963837, 11194963838, 11194963834], "tags": {"addr:city": "San Joaqu\u00edn", "addr:housenumber": "50", "addr:street": "Celia Solar", "amenity": "school", "name": "Colegio Particular Nuestra Sra Del Huerto"}}, {"type": "way", "id": 1208177434, "nodes": [11194963839, 4232379758, 11194963840, 11194963841, 11194963839], "tags": {"amenity": "kindergarten", "name": "Jard\u00edn Infantil K\u00e1iser Garten"}}, {"type": "way", "id": 1208177435, "nodes": [11194963842, 11194963843, 11194963844, 11194963845, 11194963836, 11194963835, 11194963834, 11194963846, 11194963847, 11194963842], "tags": {"addr:city": "San Joaqu\u00edn", "addr:housenumber": "2222", "addr:street": "Santa Elena", "amenity": "university", "building:levels": "2", "name": "Universidad de Talca Campus Santiago", "operator": "Universidad de Talca"}}, {"type": "way", "id": 1208177437, "nodes": [11194963855, 11194963856, 11194963857, 11194963858, 11194963855], "tags": {"amenity": "parking"}}, {"type": "way", "id": 1228940520, "nodes": [11396874381, 11396874382, 11396874383, 11396874384, 11396874385, 11396874386, 11396874387, 11396874388, 11396874389, 11396874390, 11396874391, 11396874392, 11396874393, 11396874394, 11396874395, 11396874396, 11396874381], "tags": {"addr:city": "San Joaqu\u00edn", "addr:country": "CL", "addr:housenumber": "4745", "addr:street": "Vecinal", "amenity": "doctors", "building": "yes", "healthcare": "doctor", "name": "Centro M\u00e9dico Los Galenos"}}, {"type": "way", "id": 1240649526, "nodes": [11527064222, 11527064223, 11527064224, 11527064225, 11527064222], "tags": {"addr:city": "San Joaqu\u00edn", "addr:housenumber": "3319", "addr:street": "Liszt", "amenity": "arts_centre", "building": "no", "name": "Espacio Checoeslovaquia"}}, {"type": "way", "id": 1246109115, "nodes": [6912918732, 11584718462, 11584718463, 11584718464, 11584718465, 11584718466, 11584718467, 11584718468, 11584724069, 11584724070, 6912918732], "tags": {"addr:city": "San Joaqu\u00edn", "addr:housenumber": "5351", "addr:street": "Canad\u00e1", "amenity": "school", "fee": "no", "name": "Colegio Pestalozzi", "phone": "+5625898845"}}, {"type": "way", "id": 1246126673, "nodes": [1516121147, 11584856062, 11584856063, 11584856064, 1516121147], "tags": {"addr:city": "San Joaqu\u00edn", "addr:housenumber": "20", "addr:street": "Capit\u00e1n Prat", "amenity": "school", "name": "Liceo Santa Mar\u00eda Eufrasia Escuela C\u00e1rcel", "website": "https://santamariaeufrasia.slepgm.cl"}}, {"type": "way", "id": 1270763544, "nodes": [11801037849, 11801037850, 11801037851, 11801037852, 11801037849], "tags": {"addr:city": "San Joaqu\u00edn", "addr:housenumber": "135", "addr:street": "El Pinar", "amenity": "school", "healthcare": "doctor", "name": "Instituto de la Sordera", "short_name": "Indesor", "website": "https://institutodelasordera.cl/instituto/"}}, {"type": "way", "id": 1305112295, "nodes": [12087782661, 12087782660, 12087782659, 12087782658, 9445499790, 9445499789, 12087782661], "tags": {"amenity": "place_of_worship", "name": "La Iglesia de Jesucristo de los Santos de los \u00daltimos D\u00edas"}}, {"type": "way", "id": 1332131011, "nodes": [12325135630, 13054889251, 13054889252, 12325135629, 12325135628, 12325135627, 12325135626, 12325135634, 12325135633, 12325135630], "tags": {"amenity": "marketplace", "name": "Feria La Castrina", "opening_hours": "We,Sa 08:30-15:30"}}, {"type": "way", "id": 1380313986, "nodes": [12778874969, 12778874970, 12778874971, 12778874972, 12778874973, 12778874974, 12778874975, 12778874976, 12778874969], "tags": {"access": "customers", "amenity": "parking", "parking": "surface"}}, {"type": "way", "id": 1380313987, "nodes": [12778874977, 12778874978, 12778874979, 12778874980, 12778874981, 12778874982, 12778874983, 12778874984, 12778874985, 12778874986, 12778874987, 12778874977], "tags": {"access": "customers", "amenity": "parking", "parking": "surface"}}, {"type": "way", "id": 1391496801, "nodes": [12880174969, 12880174972, 12880174970, 4444472450, 4444472451, 12880174969], "tags": {"access": "customers", "amenity": "parking", "fee": "no", "parking": "surface"}}, {"type": "way", "id": 1391496803, "nodes": [9445499744, 9445499743, 12880174974, 12880174977, 12880174975, 9445499744], "tags": {"access": "customers", "amenity": "parking", "fee": "no"}}, {"type": "way", "id": 1421577371, "nodes": [13063848734, 13063848733, 13063848732, 10281666076, 10281666075, 10281666073, 13063848734], "tags": {"addr:city": "San Joaqu\u00edn", "addr:housenumber": "344", "addr:street": "Pasaje Navarino", "amenity": "school", "contact:email": "epoetaneruda@gmail.com", "contact:phone": "+56 2 5263878", "name": "Escuela B\u00e1sica Poeta Neruda", "operator": "1", "school:type": "10;110", "source": "Gobierno Regional Metropolitano de Santiago (http://www.gobiernosantiago.cl/)"}}]}